vol_requests,summary,category_desc,Postcode,Latitude,Longitude
5,Help us set up a new training classroom to teach young adults personal finance!,Strengthening Communities,10009.0,40.7258896,-73.9808446
5,Mentor homeless children between the ages of 2 to 12 at our weekend enrichment program.,Education,11432.0,40.7147989,-73.7936975
10,"In celebration of Father's Day, we invite fathers and their son or daughter to volunteer at our Senior Lunch Program this Sunday, June 19th at 12pm.",Helping Neighbors in Need,10016.0,40.7454894,-73.9797093
40,The Police Athletic League of New York City seeks talented and creative volunteers to assist with the planning and delivery of special events hosted by PAL throughout New York City.  Our events cater to youth and adults and are fun filled.,Strengthening Communities,10003.0,40.7313422,-73.9887282
2,Helping children 6-12 design a stage for a December 3 production.,Strengthening Communities,11205.0,40.6931304,-73.9643409
5,"Jewish Home Lifecare is seeking volunteers to assist with event set-up and transport of residents to special events activiteis on holidays, weekends, and during evenings",Helping Neighbors in Need,10025.0,40.7978043,-73.9675844
50,"Please volunteer for Earth Day events on April 21st, 22nd, or 23rd.",Environment,10017.0,40.752685,-73.9734419
20,"Share information with NYC's street vendors about their rights and responsibilities. Get to know another dimension the city,",Strengthening Communities,10038.0,40.709112,-74.006889
15,"ARTs East New York is looking for open-minded, motivated volunteers with an interest in the arts and community development to further the mission of our organization. Volunteers should have strong work ethic and willingness to explore the idea of using the arts as a tool for change.",Strengthening Communities,11207.0,40.667112,-73.885169
5,"Volunteering at the Center for Architecture Foundation is a great way to contribute to the community, learn new skills, and have fun! We have volunteer opportunities to suit every interest.",Strengthening Communities,10012.0,40.728575,-73.998532
75,"Street Games is an event that brings thousands of kids and adults alike out to learn (or relive) some of the classic street games from the 60’s and 70’s and reintroduce them to a new generation with a modern twist! Held in Thomas Jefferson Park on Saturday, May 7th from 11:00 a.m. to 3:00 p.m.",Health,10065.0,40.767711,-73.970516
6,"This dedication is of the Nottage Community Art Gallery for Ruby Nottage, the mother of famed playwright, Lynn Nottage.",Strengthening Communities,11217.0,40.68581,-73.980385
99,"A social media campaign is a focused marketing push toward an organization's goal, whether it's boosting attendance at an event, fundraising for a specific project, or spreading awareness about a program or issue.",Strengthening Communities,10013.0,40.720942,-73.997929
25,Join Friends and the Hudson River Park Trust in our efforts to help care for the more than 400 acres of water in Hudson River Park's Estuarine Sanctuary. The Clean Sanctuary Campaign has been created to remove debris from the river as floatables arrive daily with the tide.,Environment,10014.0,40.733935,-74.0049302
5,Teacher's assistant for one hour per week in the Bronx,Helping Neighbors in Need,10026.0,40.8030637,-73.952906
20,Recycling in the city has declined and we need YOU to help get NYC recycling again! Volunteers will work with OROE's borough-wide coordinators to teach New Yorkers to recycle more and waste less.,Strengthening Communities,10007.0,40.713797,-74.005494
30,Take part in a fun night of reading and creating crafts with children!,Education,10473.0,40.816693,-73.860904
30,"RAINN (Rape, Abuse & Incest National Network) is seeking volunteers in the New York City area to assist with the National Sexual Assault Online Hotline.",Helping Neighbors in Need,10003.0,40.7313422,-73.9887282
20,Tutors wanted to help students in grades 3-5 learn basic math skills.,Education,10029.0,40.7920271,-73.9445046
10,"On Thursday, April 21st our partners at America Works, and HRA Food Stamp Nutrition and Outreach Program (FSNOP) will be on-site at the Mayor’s Office of Veterans’ Affairs (MOVA) 346 Broadway, Room 817 to assist veterans seeking employment and apply for Food Stamps.",Helping Neighbors in Need,10013.0,40.716696,-74.004163
20,Recycling in the city has declined and we need YOU to help get NYC recycling again!,Environment,10007.0,40.7141085,-74.0083369
1,"We are looking for an individual to help with registration and outreach for our soccer programming.  Tasks include administrative duties, data entry, emails and calls, and designing flyers.",Strengthening Communities,11213.0,40.663701,-73.936049
99,A compelling story is vital to almost every successful communication product. Well-told short stories enable an organization to get messages across to the public and supporters in an engaging and accessible manner.,Strengthening Communities,10013.0,40.720942,-73.997929
12,Looking for an Older Adult Friendly Visitor who can provide general companionship and general assistance to seniors in the community.,Helping Neighbors in Need,10075.0,40.771244,-73.953478
10,"The American Cancer Society Coaches vs. Cancer program leverages personal experiences, community leadership and professional excellence of athletes, coaches and fans nationwide through special events and awareness activities.",Health,10001.0,40.7484356,-73.9940338
99,"he focus of this project is to review an organization's existing media and communications documents and ensure that an organization's message is delivered effectively via marketing materials, organization background documents, presentations, speeches, photos, videos, and more.",Strengthening Communities,10013.0,40.720942,-73.997929
99,"Video is a powerful medium. It helps an organization tell engaging stories, bring attention to a cause, and communicate its value and effectiveness to a wide audience",Strengthening Communities,10013.0,40.720942,-73.997929
50,"The Great Strides walk program is our organization’s premier fundraising initiative.  Each year throughout the months of May and June, thousands of New Yorkers join together to walk towards a cure for cystic fibrosis.  CF is an inherited chronic disease that affects the lungs and digestive system.",Strengthening Communities,10012.0,40.7250994,-73.9980977
200,"The 2011 Festival will take place on September 23, 24, & 25th.  This year we are searching for volunteers who can devote some of their time between Friday, September 16th and Thursday, September 22nd, as well as, the three days of the Festival itself.",Strengthening Communities,10010.0,40.739861,-73.9851916
99,"Event publicity generates buzz about an organization's event. Publicity can increase numbers of attendees traditionally, by reaching out to media for coverage in advance of the event, and directly, through social media.",Strengthening Communities,10013.0,40.720942,-73.997929
5,"Tutor and Mentor with YALLA (Young Arabs, Learning, Leading, Advancing), the high school youth program at the Arab American Association of New York.",Education,11209.0,40.6259594,-74.0291643
15,Learn more about how you can help with our Nutrition Workshop series.,Health,10001.0,40.7484356,-73.9940338
10,Personal Shoppers work one-on-one with Dress for Success clients to help select their interview suit. Personal shopping is a wonderful way to boost women’s confidence and make a direct impact on our clients’ lives.,Helping Neighbors in Need,10453.0,40.853537,-73.908741
1,"Yoga instructor needed at Roy Wilkins Recreation Center in Jamaica, Queens.",Health,10029.0,40.793292,-73.951826
250,Clean up of abandoned cemetery on Staten Island,Strengthening Communities,10314.0,40.6039381,-74.1473451
10,"Volunteers at this event will make popcorn, paint faces, and lead games.  The movies will be shown in the Far Rockaway Beach area of Queens.",Strengthening Communities,11415.0,40.710954,-73.835147
22,"Join other volunteers for a back to school event in Forest Park, Queens.",Strengthening Communities,11415.0,40.710954,-73.835147
1000,"Help out the American Cancer Society in Central Park on October 16, 2011!",Health,10001.0,40.7484356,-73.9940338
5,Provide Youth and Adults with New Skills.,Helping Neighbors in Need,10010.0,40.739861,-73.9851916
50,"Bike New York is looking for intern to help with event organization, and behind the scenes work.",Health,11205.0,40.6931304,-73.9643409
99,"A motion graphics video offers a simple, visually engaging way to introduce an organization to a wider audience. Unlike traditional video, a motion graphics focuses on visual content or still images, so there is no need for a film shoot.",Strengthening Communities,10013.0,40.720942,-73.997929
2,"Volunteer your time to work alongside an all-girls, middle school rowing team, helping them succeed in academics during after-school time.",Education,11101.0,40.74673,-73.951921
1,"Teacher of Basic Computer Skills such as browsing, MS word, Excel, etc.",Helping Neighbors in Need,10013.0,40.714459,-73.999347
12,Help care for our vegetable garden beds where all our produce will be donated to local food pantries.,Environment,10463.0,40.895865,-73.892294
1,"NIP is looking for a person who would like to assist our Director of Communications and Community Outreach in informing the community of the availability of our services by communicating directly with patients and with referal sources through marketing, media and special events.",Strengthening Communities,10107.0,40.7663202,-73.9824356
15,Provide IT and network support at community based organizations in New York City who are currently partnering with iGotITtoo.,Strengthening Communities,11238.0,40.6810526,-73.9635903
2,Instruct adults lacking HSD/GED in preparation for the GED exam in a small group setting in Harlem.,Helping Neighbors in Need,10027.0,40.8104656,-73.9505422
25,Join us at the largest timebanking event in New York City!,Helping Neighbors in Need,10003.0,40.7313422,-73.9887282
10,Promote recycling in your apartment building!,Environment,10004.0,40.705079,-74.010766
99,"Crowdfunding is people pooling their money together, usually via the Internet, to support an idea or effort initiated by a person or organization. Crowdfunders can build up and nurture a community of like-minded individuals who genuinely want to see one another succeed.",Strengthening Communities,10013.0,40.720942,-73.997929
30,"Volunteers needed for our exciting Family Benefit at Webster Hall, May 22, 2011!",Strengthening Communities,10013.0,40.72064,-73.998568
100,Volunteers to pack boxes of Turkey Dinners on Nov.22,Strengthening Communities,10116.0,42.4415752,-78.1937763
2,Literacy volunteers needed  to read books aloud to children on Saturdays.,Education,11205.0,40.6931304,-73.9643409
99,"A vision and mission analysis helps an organization identify how it wants to change the world, who it wants to serve, and how it will accomplish its goals. Organizations often revise their vision, mission, and aspirations at strategic milestones such as new leadership.",Strengthening Communities,10013.0,40.720942,-73.997929
6,"Work in a supported mentoring program with middle school students in Brooklyn, 3 days per week during the school day.  Individuals interested in a career in teaching are encouraged to apply.",Education,10025.0,40.7978043,-73.9675844
70,Lend your hands for the environment. Help keep New York coasts clean and free of debris. Celebrate the earth.,Environment,11235.0,40.5862241,-73.9517646
15,"ARTs East New York Inc. is looking for open-minded, motivated volunteer with an interest in the arts and community development to further the mission of our organization. Volunteer should have strong work ethic and willingness to explore the idea of using the arts as a tool for change.",Strengthening Communities,11207.0,40.667112,-73.885169
1,"We are seeking an instructor for our youth dance/drama workshop. Mon and Wed 3p-5p. The students will be conducting a production of ""The Wiz"". Instructor will be responsible for creating all lesson plans and reports.   ARTs East New York Inc.  artseastny.com",Education,11207.0,40.664571,-73.880906
35,Join KHCC and Horace Mann High School for a celebration of service learning!,Education,10463.0,40.877505,-73.90033
15,Community Services-Nazi Victim Friendly Visitor Program. This friendly visiting program serves as the last surviving relative to the victims of the Nazi Persecution. Supported by social workers these are people who would benefit from a friendly visitor who can spend an hour a week with clients.,Helping Neighbors in Need,10010.0,40.739861,-73.9851916
5,"Office support - Provide office support, office management, database management, desktop publishing, word processing and any other office work  Volunteer Recruitment & Personnel - Recruit, supervise and communicate with volunteers and interns in our office and all over the world",Strengthening Communities,10025.0,40.7978043,-73.9675844
30,Public event for families with crafts and activities,Strengthening Communities,11231.0,40.677343,-74.011558
5,Manhattan/Brighton Beach Senior Center is looking for activity leaders for any and all topics! Volunteer once a week to share your particular field of interest with our members.  Contact us and we will help you develop an opportunity tailored specifically to you and your talents!,Helping Neighbors in Need,10010.0,40.739861,-73.9851916
99,"This plan helps an organization determine how to spend its advertising dollars and manage this program. This project involves keyword research, ad copywriting, and account optimization guidelines.",Strengthening Communities,10013.0,40.720942,-73.997929
3,"The Family Center is a New York City non-profit dedicated to strengthening families affected by illness, crisis, and loss.  We are currently seeking a volunteer event photographer to capture compelling images of the children and families in our care.",Strengthening Communities,10018.0,40.754116,-73.9903452
8,Oversee our boys scout on saturdays as a troup leader,Strengthening Communities,11233.0,40.680383,-73.909948
100,"We empower communities by training volunteers to prepare and respond to disasters. On 6/22/11, we will host an info session at our office where we are asking anyone interested in service to learn more about volunteer opportunities at WCC. Everyone has something to contribute.",Emergency Preparedness,10018.0,40.753612,-73.992417
20,"The Olivieri Drop-In Center participates in the Emergency Shelter Network Respite Bed Program, a network of volunteer-run emergency respite sites hosted by various Congregations and community organizations throughout New York City.",Helping Neighbors in Need,10018.0,40.754952,-73.991467
5,The Wendy Hilliard Foundation is looking for volunteers to come in on Saturday's from 3:30-6:30PM at Riverbank State Park to read with gymnastics students before or after they come to class.,Education,10040.0,40.8505476,-73.933841
1,NYAWC is seeking a volunteer to assist our Administration department with our busy office.,Strengthening Communities,10004.0,40.706045,-74.013096
30,"At Citizen Schools, middle school students work side-by-side with experts like you to explore new fields, learn new skills, and create something real for their community.",Education,10010.0,40.739861,-73.9851916
6,"CVM AmeriCorps’ English Language Literacy program offers free ESL classes to adult learners in the Chinatown and LES community. We currently have four classes - Beginner 1,Beginner 2, Intermediate, and Advanced Conversation. Our classes run on a Monday to Thursday schedule, from 6:30 – 8:30pm.",Helping Neighbors in Need,10038.0,40.71187,-74.00641
5,"Windows desktop support and system administration, networking, software updating and configuration, and office equipment troubleshooting.",Strengthening Communities,10025.0,40.7978043,-73.9675844
3,"Pre-GED/GED Literacy and/or Math tutoring. Experience highly desirable but not essential. Proven ability to manage learners. Strong organizational, computer, verbal (oral and written) math, communication skills. Commitment to caring and helping others.",Helping Neighbors in Need,11201.0,40.691306,-73.987419
5,"Momentum needs volunteers to help with a dinner program, located on East 165th Street near the Grand Concourse in the Bronx, offering a nutritious hot meal and pantry to take home, as well as social services.",Helping Neighbors in Need,10452.0,40.83773,-73.9222981
10,"This opportunity is located in Little Bay Park, Fort Totten.  The dates are August 16, 23, and 30 at 8pm.  Volunteers are needed for the following special events: singers, clowns, magicians, arts & crafts.",Strengthening Communities,11415.0,40.710954,-73.835147
3,The PAL BBC Steppers Step team program seeks an instructor available on Wednesday from 5:00pm – 7:30pm and Saturday mornings from 11:00 am – 1:00 pm. The BBC Steppers will consist of about 20 middle school and teen participants with or without formal experience in stepping.,Health,11212.0,40.656068,-73.907245
50,"Help pass out programs, serve food to performers, support audience members.",Strengthening Communities,11202.0,40.690502,-73.991988
2,Help our nonprofit tell its story,Strengthening Communities,11231.0,40.683929,-73.998659
1,NYC Parks and Recreation seeks your participation to enrich our parks! Shape Up New York is a free fitness program for all ages and is looking for a Zumba instructor at Forest Park Wallenburg Square in Queens.   Volunteers must have some experience as a fitness instructor.,Health,11418.0,40.6977882,-73.8346555
10,"Change a community!  Give the gift of self confidence, independence, health, and a smaller carbon footprint! Volunteer for Bike New York!",Strengthening Communities,10115.0,40.811101,-73.964168
3,"Bring the joy of music to seniors with Alzheimer's and related dementia at Lenox Hill Neighborhood House, the oldest and largest social and educational services organization on Manhattan's Upper East Side.",Strengthening Communities,10021.0,40.7701875,-73.9596759
15,"ARTs East New York Inc. is looking for open-minded, motivated volunteers with an interest in the arts and community development to further the mission of our organization. Volunteers should have strong work ethic and willingness to explore the idea of using the arts as a tool for change.",Strengthening Communities,11207.0,40.667112,-73.885169
100,"Join us on April 3, 2011 for the Best Buddies NYC Friendship Walk and help us step closer to a more accepting and inclusive future for people with intellectual and developmental disabilities!",Strengthening Communities,10024.0,40.78623,-73.9756746
3,"Volunteers needed to file for fair hearings, do client advocacy and screen clients for food stamps.",Helping Neighbors in Need,10004.0,40.70447,-74.009406
2,"We are New York City’s largest girls-only youth and leadership development program where girls learn to lead with courage, confidence and character to make their communities and the world  a better place.",Strengthening Communities,10029.0,40.794476,-73.933565
5,We are recruiting outstanding undergraduate and graduate students as interns for the 2011-2012 school year to collaborate on the boldest nonprofit initiative we know.,Education,10001.0,40.749794,-73.991486
50,"Join one of The Laundromat Project's teaching artists Shani Peters and support this community interactive, social practice art project.  It’s easy; put on a sandwich board, grab a stack of flyers, and spread KNOWLEDGE and LOVE throughout Harlem!",Strengthening Communities,10037.0,40.816616,-73.934829
10,"Come out to the South Bronx to help us hold our first open house! We need volunteers to help staff the event and run educational exhibit tables. Help us express a love of learning, science, and engineering to the community in the poorest congressional district in the country.",Strengthening Communities,10474.0,40.817286,-73.89184
99,"This project gives you the rare opportunity to meet with a seasoned CEO of a successful for-profit company that has at least $1,000,000 in annual revenue. You must be the Executive Director, or equivalent, of an organization to be eligible for this project.",Strengthening Communities,10013.0,40.720942,-73.997929
5,Volunteers are needed to help divert clothing and textile waste from the landfill at our textile recycling drive!  Help out your community and enjoy a day outside as you receive bags of textiles and help load the collection truck at the end of the day.,Environment,10007.0,40.713797,-74.005494
500,Join over a thousand professionals in NYC who mentor teens from underserved communities. Most of them had never served as mentors before joining but iMentor’s flexible and supportive mentoring model gave them the opportunity and confidence to try.,Education,10004.0,40.70618,-74.01125
20,Volunteers help with deliveries and organization of the pantry.,Helping Neighbors in Need,10029.0,40.7920271,-73.9445046
20,"Queens Pride House, the Lesbian, Gay, Bisexual, Trans, Queer/Questioning center of Queens is seeking volunteers in a variety of roles.  Join us for our next orientation session, February 25th at 6:30 to get more involved! For more information: http://queenspridehouse.org/volunteer-opportunities",Strengthening Communities,11372.0,40.749193,-73.889702
3,The BCA is currently in need for an individual to rewrite and convert our current Content Management Software to a more functional CMS (possible Drupal),Strengthening Communities,10016.0,40.750131,-73.981247
99,"Creating a brand identity will explore an organization's history, values, vision, mission, and key stakeholders.",Strengthening Communities,10013.0,40.720942,-73.997929
10,Help middle school students improve their writing skills.,Education,11106.0,40.760205,-73.937473
8,"If you wish to escape the bustling city and enjoy beautiful surroundings, get involved and become an ambassador for the greatest Botanical Garden in the world!",Environment,10458.0,40.865684,-73.883312
50,"Come enjoy the green summer experience of Park Avenue closed to car traffic for 7 miles, and help us save massive heaps of recyclable materials from going into landfills and incinerators! Volunteers are needed to run our recycling game and help monitor event recycling.",Environment,10007.0,40.713797,-74.005494
99,An effective marketing plan addresses an organization's medium to long term goals by leveraging limited resources to achieve maximum impact.,Strengthening Communities,10013.0,40.720942,-73.997929
1,"Live Out Loud is looking for a marketing intern to help promote programs for LGBT (lesbian, gay, bisexual, and transgender) youth!",Strengthening Communities,10018.0,40.755119,-73.987638
2,"Metropolitan Council on Jewish Poverty is one of New York's largest human services agencies, providing more than 100,000 New Yorkers with critical services in their fight against poverty and its effects every year.",Health,10016.0,40.744241,-73.981285
20,We are currently seeking friendly and energetic adults to be part of NYBG’s tour guide program.,Environment,10458.0,40.865684,-73.883312
2,"The secretary will be responsible for taking meeting minutes, filing and managing correspondences among board members, staff and volunteers.",Strengthening Communities,11213.0,40.674103,-73.929644
20,"Volunteers are needed Fridays, Saturdays, and Sundays. They would help open the site, greet visitors, explain the exhibition and help with our special events.",Strengthening Communities,10004.0,40.7018055,-74.0132736
2,"Ideal volunteer should want to work to prevent domestic, interpersonal and family violence and willing to raise money to make this happen.",Strengthening Communities,10001.0,40.7484356,-73.9940338
1,Big Apple Greeter is looking for a volunteer to handle the writing and production of quarterly online newsletter.,Strengthening Communities,10007.0,40.713001,-74.004181
40,Help with a forest restoration project along the Old Croton Aqueduct Trail of Van Cortlandt Park,Strengthening Communities,10463.0,40.895865,-73.892294
20,This is an opportunity to help SCOPE serve children in need in our community.  Volunteers will be provided with dinner and will be invited to enjoy a portion of the program. This is a chance to share your passion for helping the community and interact with supporters who are committed to our cause.,Strengthening Communities,10018.0,40.754116,-73.9903452
15,"Volunteers are needed for a Back to School event in Little Bay Park, Queens, in the following areas:singers, clowns, magicians, arts and crafts.",Strengthening Communities,11415.0,40.710954,-73.835147
7,"Volunteers are needed to assist with FPCJ Summer Worship Arts Camp which will take place from Monday, August 8th-Friday, August 12th from 9 AM-12 PM.",Strengthening Communities,11432.0,40.707053,-73.796924
50,"Earth Celebrations 3rd Annual Hudson River Pageant, 2011  Join us to create river species puppets and costumes! Volunteer to participate in our Puppet & Costume Workshops to create the spectacular puppet and costumes for the parade, inspired by the native species and habitats of the Hudson River.",Environment,10007.0,40.7141085,-74.0083369
3,"The Family Center is currently seeking a volunteer graphic designer to donate their skills, time, and resources to help increase our awareness in the community mainly by creating digital and print invitations for a variety of events throughout the year.",Strengthening Communities,10018.0,40.754116,-73.9903452
1,"• Preparing press releases and updates to our website. •Working on the new “Greeter for a Day” program, in which CEOs and other top executives have the opportunity to be a Greeter in a neighborhood of their choice. •Updating press log and maintaining clip file.",Strengthening Communities,10007.0,40.713001,-74.004181
99,"A logo provides a visual identity that conveys an organization's values, mission, and brand. Visual branding provides a set of guidelines, fonts, and colors, which support an organization's logo and visual identity.",Strengthening Communities,10013.0,40.720942,-73.997929
1,"The Web Editor will be responsible for managing all aspects of the site’s content, which entails a conceptual and detailed plan of new content.",Strengthening Communities,11372.0,40.749193,-73.889702
1,Big Apple Greeter’s Director of Development seeks a part-time Volunteer Grant Writer. The ideal candidate will have a several years of grant-writing experience.,Strengthening Communities,10007.0,40.713001,-74.004181
10,"ClassWish is a nonprofit organization that empowers parents, educators, and local communities to make a positive change in their children's lives by providing them with the supplies they need to learn, grow and excel.",Education,10001.0,40.749794,-73.991486
20,"Career Gear collects men's business clothing, and provides career counseling and mock interviews for clients, who are looking to enter or re-enter the workforce.",Helping Neighbors in Need,10271.0,40.708546,-74.011041
1,"Afro-Asian, Inc. is a New York City based non-profit organization that aims to promote the city’s rich multi- cultural heritage through music by supporting the development of local musicians and to expand access to music education to youth.",Strengthening Communities,10002.0,40.7170829,-73.9893099
50,Work in a classroom to help lead low-income secondary students develop plans to enact change within their communities.,Education,10010.0,40.739861,-73.9851916
15,"Join the Governors Island Alliance on Saturday, May 28th for our seventh annual Family Festival in Nolan Park on Governors Island. Volunteers are needed to help set up and run activities for children ranging from theater games to arts and crafts projects. Please go to Bit.ly/GIAVolunteer to sign up!",Strengthening Communities,10003.0,40.734163,-73.988627
20,Share What YOU Know and Love: Become a Citizen Teacher!,Education,10005.0,40.706186,-74.010907
1,Need yoga instructor for adolescents in the inpatient psychiatry unit at Bellevue Hospital.,Health,10016.0,40.739173,-73.976862
20,Knitting Project,Strengthening Communities,10013.0,40.72631,-74.00749
20,This volunteer opportunity is great for people who are interested in volunteering in a university environment with graduate and undergraduate college students.,Education,10010.0,40.739861,-73.9851916
4,"The WorldofMoney.org has a five year of a proven track record of delivering empowering financial and business education to underserved youth, ages 12 - 18.",Strengthening Communities,10036.0,40.7594193,-73.9892203
1,NYC Parks and Recreation seeks your participation to enrich our recreation facilities!   Shape Up New York is a free fitness program for all ages and is looking for additional instructors at Al Oerter Recreation Center. Volunteer opportunities are available for a variety of classes and activities...,Health,11355.0,40.751616,-73.834155
4,Figure Skating in Harlem is a pioneering non-profit organization that provides girls ages 6-18 with vital educational and skating opportunities that build self-worth and promote physical well being and academic achievement.  Your work will benefit girls from a low-income community.,Education,10027.0,40.8104656,-73.9505422
10,"You will ride one of the various routes (15, 30, 45, 62, 100 miles)  to see order is maintained, any emergencies be addressed, and any questions that the riders may have be answered.",Strengthening Communities,10001.0,40.747629,-73.99306
20,Please join us and the PAL kids for ice skating at Riverbank Park. It's a great way to enjoy the final days of winter and for a very good cause! Volunteers are kindly asked to pay for their expenses on the day. Admission to rink and skate rental are $5.00 and $6.00 respectively.,Strengthening Communities,10026.0,40.806654,-73.955649
25,Join us for a painting project at MS131 in Chinatown on September 10th 2011. As part of our day of service in remembrance of 9/11.,Education,10038.0,40.71187,-74.00641
8,"Join the Department of Parks and Recreation at Far Rockaway Beach on July 24th for a Sand Castle Contest.  Time commitment will include morning and afternoon hours.  Volunteers needed for crafts, face painting, refreshment distribution and contest judging.",Strengthening Communities,11415.0,40.710954,-73.835147
5,"A day of fun and games, giveways for the entire community.",Strengthening Communities,11203.0,40.656162,-74.00901
15,"ARTs East New York Inc. is looking for open-minded, motivated volunteers with an interest in the arts and community development to further the mission of our organization. Interns should have strong work ethic and willingness to explore the idea of using the arts as a tool for change.",Strengthening Communities,11207.0,40.667112,-73.885169
3,"We are currently accepting applications for FALL 2011  Volunteers are needed weekdays to assist in our pharmacy with packaging, labeling, delivering medications and also to perform minor filing and other clerical work .",Helping Neighbors in Need,10025.0,40.7978043,-73.9675844
40,El Museo del Barrio needs your help for a wide array of volunteer tasks!,Strengthening Communities,10029.0,40.793072,-73.951992
3,Part of the Solution (POTS) Legal Clinic (www.potsbronx.org) serves low-income residents of the Bronx.,Helping Neighbors in Need,10458.0,40.865714,-73.886305
20,The Police Athletic League of New York City seeks skilled volunteers to provide vocational training for teens and young adults.,Helping Neighbors in Need,10003.0,40.7313422,-73.9887282
99,"Market analysis helps an organization understand the attractiveness of a market, its evolving opportunities, and threats in the external market as they relate to an organization's internal strengths and weaknesses.",Strengthening Communities,10013.0,40.720942,-73.997929
3,Assist staff by providing support in caring for babies.,Helping Neighbors in Need,10010.0,40.739861,-73.9851916
10,"Give the gift of confidence, freedom, independence, and a greener, healthier society to others through teaching them how to ride bicycles!",Health,10115.0,40.811101,-73.964168
1,Looking for someone  to grow the impact of our programs by getting involved in all aspects of our fundraising operations with a focus on fundraising management and development.,Strengthening Communities,11215.0,40.677354,-73.984973
15,"Help us spread Fibar mulch on paths in the park, to create a safe walking surface.  September 17, from 2pm - 5pm.",Environment,10010.0,40.736274,-73.97468
6,"The program seeks to match young adults, age 18 to 24 who have aged out of the foster care system, with professional mentors.",Education,10010.0,40.739861,-73.9851916
20,"Become a teaching assistant for the day by helping an LP teaching artist run an outdoor art workshop at a New York City laundromat. Other opportunities available, too!  Most workshops are held at a Harlem laundromat, but we recruit volunteers for events in other locations, as needed.",Strengthening Communities,10026.0,40.8030637,-73.952906
10,Helping those to help themselves,Helping Neighbors in Need,10013.0,40.72631,-74.00749
50,"Thousands of New Yorkers aren’t able to dig out the snow; many need help shoveling snow, bringing groceries into their home, or traveling to mass transit hubs.  If you’re an able-bodied New Yorker with a few minutes to spare, please find an opportunity in your neighborhood below.",Helping Neighbors in Need,10007.0,40.713265,-74.007063
8,Lenox Hill Neighborhood House is the oldest and largest social and educational services organization on Manhattan's Upper East Side.,Helping Neighbors in Need,10018.0,40.754116,-73.9903452
10,Don’t need to have a green thumb but it doesn't hurt. We need muscle power to help maintain several raised beds filled with vegetables and flowers.,Environment,10001.0,40.746817,-73.993655
1,We are looking for help with the successful re-launch of our brand with an effective roll out strategy and marketing plan.,Strengthening Communities,11207.0,40.667112,-73.885169
1,We are looking for a social-media and web-savvy intern/volunteer to help us launch and administer an online story contest to help build our brand awareness and get more potential volunteers and donors engaged with our cause.,Strengthening Communities,10003.0,40.7313422,-73.9887282
15,"The Chapter Ambassadors will promote Society events, programs and outreach events as program support and as a Society representative at various events and programs directly benefiting people living with MS.",Health,10017.0,40.753074,-73.972753
1000,icouldbe.org is an award-winning online mentoring program connecting middle and high school students from diverse communities with mentors from across the country.,Education,10010.0,40.739861,-73.9851916
2,"World Cares Center is looking for individuals to help us with branding initiatives and producing print materials (pamphlets, brochures, etc.)for marketing our programs and initiatives.",Strengthening Communities,10018.0,40.753612,-73.992417
9999,"From accounting to fundraising to marketing to strategy, Catchafire makes it easy for every professional to use their skills for good.",Strengthening Communities,10016.0,40.7454894,-73.9797093
15,"Provide daily guidance to campers, lead camp activities, assist other counselors, actively participate with campers, plan and direct a portion of daily activities, maintain attendance records and other required paper work. Assume responsibility for safety and discipline of campers.",Strengthening Communities,11365.0,40.739873,-73.788239
3,We are having a conference/celebration later this year and are looking for volunteers with fundraising experience to help us.,Strengthening Communities,10028.0,40.7765642,-73.9537245
30,"A mentor’s main purpose is to help a child define individual goals and find ways to achieve them.  Since the expectation of each child will vary, the mentor’s job is to encourage the development of a flexible relationship that responds to both the mentor’s and the child’s needs.",Education,11216.0,40.688289,-73.952216
2,"Clerical Assistanted wanted.  Assist in filing, typing, record keeping, some receptionist duties.",Strengthening Communities,10001.0,40.746817,-73.993655
5,"Public Relations: for our national publicity campaigns: press releases and other marketing materials and contact with major media, including newspapers, magazines, radio, television and the internet.",Strengthening Communities,10025.0,40.7978043,-73.9675844
20,Spend one hour this Saturday learning how to change others' lives by teaching them how to ride a bicycle!,Helping Neighbors in Need,10115.0,40.811101,-73.964168
10,Year round or summer internship in NYC or virtually,Education,10001.0,40.749794,-73.991486
20,"Facilitate an IT focused course, there are opportunities for basic, intermediate and specialized IT program facilitation in addition to assistance with community engagement and outreach.",Strengthening Communities,11238.0,40.6810526,-73.9635903
6,We are looking for enthusiastic volunteers to teach our ESL classes for the fall semester. No experience is necessary and training is provided!,Helping Neighbors in Need,11209.0,40.63238,-74.021444
99,A promotional video gives an organization the opportunity to communicate what the organization does and why it is important to a wide audience in an engaging manner. It offers an avenue for reaching potential patrons as well as people who may not yet be familiar with the organization.,Strengthening Communities,10013.0,40.720942,-73.997929
100,"Volunteer for 6th Annual Halloween Carnival set up and event in Park Slope, Bklyn.",Strengthening Communities,11214.0,40.6020415,-73.9966359
100,"Sign up to volunteer at inMotion's Story by Story stair climb fundraiser on Thursday, October 6th!",Helping Neighbors in Need,10018.0,40.753716,-73.987068
15,"Stop 'N' Swap reduces NYC's waste by finding new homes for unwanted, but usable items.  Help sort, fold and display items to make this a fun free reuse experience for all.",Environment,11238.0,40.6810526,-73.9635903
99,"A social media plan helps an organization develop a presence in the digital sphere, through social media sites like Facebook, Twitter, and others. Social media helps an organization interact and engage with online audiences to increase awareness about its mission, all on a shoestring budget.",Strengthening Communities,10013.0,40.720942,-73.997929
5,Pack backpacks for our Back to School distribution.,Strengthening Communities,11221.0,40.691698,-73.911714
10,Volunteers are needed to participate in Met Council’s Passover Food Distribution for families affected by domestic violence.,Helping Neighbors in Need,11230.0,40.6215047,-73.965623
1,Girls Inc. of NYC seeks a HTML Curriculum Design Intern to supplement and expand our HTML curriculum for girls in grades 6 – 11.,Strengthening Communities,10005.0,40.70438,-74.006427
50,"Thousands of New Yorkers aren’t able to dig out the snow; many need help shoveling snow, bringing groceries into their home, or traveling to mass transit hubs.  If you’re an able-bodied New Yorker with a few minutes to spare, please find an opportunity in your neighborhood below.",Helping Neighbors in Need,10007.0,40.713265,-74.007063
10,Met Council is looking for people passionate about helping others make healthier choices. We need your help to design and facilitate workshops to be held in our senior centers among other locations.,Health,10001.0,40.7484356,-73.9940338
20,Tutors needed in after school programs for high school and junior high school students in Harlem.,Education,10010.0,40.739861,-73.9851916
100,"Civil Air Patrol has three congressionally mandated missions: Emergency Services, Aerospace Education and the Cadet Program.",Strengthening Communities,11213.0,40.672713,-73.936924
4,"Metropolitan Council on Jewish Poverty is one of New York's largest human services agencies, providing more than 100,000 New Yorkers with critical services in their fight against poverty and its effects every year.",Health,10016.0,40.744241,-73.981285
20,We are currently in the process of recruiting academic tutors for our after school programs. The time commitment is not strenuous. It is also a great opportunity to gain experience working with youth.,Education,10029.0,40.7920271,-73.9445046
20,"Heights and Hills is recruiting volunteers to support our elderly clients through a range of activities including weekly companionship, and help with one time tasks such as setting up email accounts or hanging drapes.",Helping Neighbors in Need,11201.0,40.692217,-73.986665
1,"Intern will have the opportunity to gain experience in many aspects of health education such as: outreach activities, developing culturally specific program materials, and hands on program implementation.",Health,10016.0,40.762131,-73.97036
25,"Housing Works, Inc. is looking to partner with corporate volunteer groups to volunteer at our Processing and Donations Center in Long Island City Queens. We can accommodate large groups and welcome help Mondays through Saturdays.",Strengthening Communities,10012.0,40.72496,-73.997157
100,"Inspire one high school Future Fellow by partnering with them for one school year. Together, during weekly 90 minute meetings, you will discover a passion, build a project, and spread inspiration throughout the school and community.",Education,10011.0,40.740887,-73.9995464
3,Conservation nonprofit seeks virtual volunteers to assist in building its social networks and online presence through web 2.0 options.,Strengthening Communities,11231.0,40.683929,-73.998659
10,"The World Science Festival, one of the largest and most prestigious gathering of scientists and science enthusiasts, is currently seeking volunteers to assist with administrative office work.",Strengthening Communities,10115.0,40.811101,-73.964168
20,"Learning Leaders, the nation’s oldest and largest school volunteer and parent engagement, is currently seeking volunteers to serve as tour guides at the Brooklyn Museum with our ArtWorks program.",Strengthening Communities,11238.0,40.671835,-73.963042
15,Volunteers are needed to pitch in and help reorganize a library for low-income seniors in Brooklyn. Help freshen up the those dusty shelves and have some fun!,Strengthening Communities,11224.0,40.5798314,-73.9987552
15,Provides instruction to camp participants for indicated activity or subject. Teaches the associated knowledge and skills and assists campers in achieving activity or lesson goals.,Strengthening Communities,11365.0,40.739873,-73.788239
100,Help with a forest restoratio project along the John Muir Trail of Van Cortlandt Park,Strengthening Communities,10463.0,40.895865,-73.892294
1,Accountant with non-profit experience,Helping Neighbors in Need,11102.0,40.771029,-73.9247023
30,"Volunteers Needed for 4-Mile Charity Run/Walk for Cancer Research in New York City's Central Park on Sunday, July 17, 2011 (7:00 a.m. to Noon)",Strengthening Communities,10128.0,40.7817366,-73.9511409
22,"Receive, sort, and display donated Halloween costumes!",Strengthening Communities,10007.0,40.713797,-74.005494
4,Retail sales support for the Shop@RMA.,Strengthening Communities,10011.0,40.740887,-73.9995464
10,Assist staff in providing program and transportation to clients in a fun and challenging environment.,Helping Neighbors in Need,11215.0,40.666966,-73.990448
2,We are looking for an excited and organized individual to help us in our day to day activities. Join a dynamic team to help prevent suicide.,Helping Neighbors in Need,10004.0,40.706449,-74.012761
1,Come and share your dancing techiques,Health,11239.0,40.6540732,-73.8752529
100,Create cards at home for this special event.  Mail cards to DOROT by 9/1/11,Strengthening Communities,10024.0,40.78623,-73.9756746
20,Coney Island Prep has a number of opportunities for groups of all sizes that can be tailored to meet the specific needs and interests of corporations.,Strengthening Communities,11224.0,40.5798314,-73.9987552
1,"BCS is seeking a motivated and outgoing individual with a strong interest in working with adults with disabilities in our BKLYN UNLTD workshop, our sub-assembly packing, shipping and labeling company.",Strengthening Communities,11217.0,40.687759,-73.982898
200,"Concern’s annual Spring Run needs volunteers! Looking for groups & individuals! Concern Worldwide US, an international humanitarian agency committed to fighting extreme poverty around the world, needs over 100 volunteers to help spread the word and join us for a great day out in Central Park!",Strengthening Communities,10017.0,40.750245,-73.976909
10,Our Annual Back to School Kickoff,Strengthening Communities,11233.0,40.680383,-73.909948
5,"Attention all filmmakers, producers, and editors: The Mayor’s Office of Adult Education and the New York City Council need your help! We are looking for volunteers to provide technical assistance, on-set filming, and/or post-production editing for our new initiative, YouCanToo!",Strengthening Communities,10038.0,40.710353,-74.004007
4,"Each year on the first day of summer, public spaces in all five boroughs become informal musical stages for all New Yorkers, amateurs and professionals, to perform for friends, neighbors, and passers-by, turning the city into a festival of live music making.",Strengthening Communities,10002.0,40.7170829,-73.9893099
5,We are seeking Professionals in a variety of industries to participate in roundtable discussions with students! We are also seeking Professionals who are interested in conducting a workshop for our scholars on Networking.   Networking: People skills to get you where you want to go!,Education,10027.0,40.808639,-73.948582
100,Learn CPR. Save a life. Use your BLANK for good.,Emergency Preparedness,11236.0,40.6246,-74.026744
36,Help our neighbors up north by staffing canned food drives at one of our Brooklyn farmer's markets.,Helping Neighbors in Need,10007.0,40.713265,-74.007063
8,KFT is seeking Computer Skills Tutors to instruct fifteen 3rd to 6th grade students at P.S. 59 in basic and relevant computer skills.  The Computer Skills Tutor will be part of a team of tutors who will work together to present classroom computer lessons and work in small groups with the students.,Education,10010.0,40.74053,-73.981899
20,Help immigrants and new Americans practice their English through some Coffee & Conversation!,Helping Neighbors in Need,11238.0,40.668597,-73.976861
70,"East Harlem Tutorial Program is looking for volunteer tutors, reading partners for elementary school kids, and college mentors for our graduating seniors!!",Education,10029.0,40.790263,-73.942688
2,Experienced mural artist needed to create a special mural for pre-schoolers,Strengthening Communities,10001.0,40.746817,-73.993655
50,As a Leader you will serve as a mentor to a group of girls. Opportunities available in all 5 boroughs!,Strengthening Communities,10010.0,40.739861,-73.9851916
5,"The Administrative Support Volunteer will assist QSAC staff in achieving the mission of the agency.  Volunteers are needed to help with office tasks such as filing, data entry, answering phones, making calls & follow up appointments, making copies, sending faxes, and general office duties.",Strengthening Communities,10001.0,40.7484356,-73.9940338
99,"Market research can help an organization determine the most effective programs to maintain and pursue once it has developed its strategic vision, mission, and aspirations. Market research can consist of interviews with key stakeholders and surveys as well as literature reviews of existing research.",Strengthening Communities,10013.0,40.720942,-73.997929
1,NYLAG is currently looking for administrative interns to work with the executive assistant to the president of organization on special projects.,Helping Neighbors in Need,10004.0,40.70447,-74.009406
1,Do you speak a South Asian language?  Are you interested in empowering NYC immigrants through community outreach and education?,Helping Neighbors in Need,11372.0,40.747993,-73.888827
5,The Museum Visitor Services volunteer greets visitors to the museum and provides assistance as needed.,Strengthening Communities,10128.0,40.785298,-73.957263
25,Help kids from low-income families start the school year on a positive note!,Helping Neighbors in Need,10458.0,40.865714,-73.886305
5,"PAL Brownsville Beacon Center (BBC) seeks dedicated Cosmetology and Barber Volunteer Instructors to educate participants in different areas and forms of hair care and beauty. Instructor must be able to instruct, explain, and demonstrate techniques and methods high school aged students.",Education,11212.0,40.656068,-73.907245
2,NYC Parks and Recreation seeks your participation to enrich our recreation facilities! Shape Up New York is a free fitness program for all ages and is looking for additional instructors at Greenbelt Recreation Center in Staten Island.,Health,10029.0,40.793292,-73.951826
2,"Administrative Assistant need to help with Filing, answering the phones and greeting clients.",Strengthening Communities,10001.0,40.746817,-73.993655
150,"Be a part of the 2011/2012 Penny Harvest!   Join us and hundreds of amazing volunteers to make Penny Harvest Leader Pin. The pins -- made out of pennies -- will be given to 30,000 Penny Harvest Leaders across the country and will inspire the 2011/2012 Penny Harvest campaign.",Education,10024.0,40.787556,-73.971407
5,This position involves membership recruitment and and encouraging greater membership support for the Museum.,Strengthening Communities,10128.0,40.785298,-73.957263
20,Please join us for a bowling event with the PAL kids! The group consists of children ranging from 9-13 years. We will have 2 hours of some 'healthy competition' and then grab some pizza afterwards. It's will be a fun day for all! For volunteers who wish to participate in bowling the cost is $13.50.,Strengthening Communities,10026.0,40.806654,-73.955649
1,":  Big Apple Greeter is looking for an experienced volunteer to perform a feasibility study to determine whether a walkathon is right for us.  This person will work under the guidance of the Executive Director, the Development Director, and the Director of Volunteers and Programs.",Strengthening Communities,10007.0,40.713001,-74.004181
1,Girls Inc. seeks a volunteer to support a fashion workshop for high school girls at The Urban Assembly Institute of Math and Science for Young Women in Downtown Brooklyn.,Education,11201.0,40.694682,-73.988853
15,"Stop 'N' Swap reduces NYC's waste by finding new homes for unwanted, but usable items.  Help sort, fold and display items to make this a fun free reuse experience for all.",Environment,11372.0,40.7514126,-73.8832908
20,Fundraising for ResoNations 2011: An International Telematic Music Concert for Peace - United Nations/Nairobi. Telematic music is real-time performance via the internet. Concert for International Year for People of African Descent declared by UN High Commission for Human Rights.,Strengthening Communities,10003.0,40.7313422,-73.9887282
15,"Reach Out and Read makes literacy promotion a standard and important part of pediatric primary care, so that children are able to grow up with access to books and are able cultivate a love of reading early on.",Education,10453.0,40.8523117,-73.9120143
6,"Momentum has a hot lunch and pantry program open to all in need that operates on Tuesdays at Lexington Avenue and East 54th Street.  We have no volunteer groups at the lunch program and need volunteers to help with pantry, serving food and site set up.",Helping Neighbors in Need,10022.0,40.758698,-73.970744
25,"Help support the Lexington School and Center for the Deaf in running our very first craft fair!  We've advertised everywhere and are hoping for a huge turnout.  Help out with set-up, selling raffles, greeting attendees, assisting vendors, and breaking-down.  We'd love to have you help!  ASL welcome!",Strengthening Communities,11370.0,40.761762,-73.893139
1,The Chelsea Art Museum would like to get a volunteer assistant to work with an artist.,Strengthening Communities,10011.0,40.740887,-73.9995464
1,To design outdoor signs and promotional flyers.,Strengthening Communities,11226.0,40.6460705,-73.9551509
50,Show your support for Van Cortlandt Park by participating in a Hike with the Friends of Van Cortlandt Park,Strengthening Communities,10463.0,40.884999,-73.892977
8,Garden with children and supervise activities on Saturdays.,Strengthening Communities,11415.0,40.7068045,-73.8315833
100,The U.S. Fund for UNICEF is inviting committed volunteers to promote the campaign in their communities in inspiring ways and to host UNICEF Tap Project fundraising events.,Environment,10038.0,40.706397,-74.006341
30,"On August 20th, 2011, join NYC Parks and the Cooper-Hewitt National Design Museum for the third annual FlyNY Kite Festival!",Strengthening Communities,10065.0,40.7660142,-73.9646852
50,"Thousands of New Yorkers aren’t able to dig out the snow; many need help shoveling snow, bringing groceries into their home, or traveling to mass transit hubs.  If you’re an able-bodied New Yorker with a few minutes to spare, please find an opportunity in your neighborhood below.",Helping Neighbors in Need,10007.0,40.713265,-74.007063
99,A public relations plan outlines an organization's objectives and creates a road map for conducting external communications. An organization will develop key messages to the public to influence opinions and actions.,Strengthening Communities,10013.0,40.720942,-73.997929
8,"The Tank is currently looking for Fall 2011 in the following categories: development, marketing, volunteer coordinator and artistic liaison.",Strengthening Communities,10036.0,40.7594193,-73.9892203
1,"Thank you for contacting New York Cares about our Children’s Recreation projects. Sports and fitness projects keep children healthy and active, arts and culture projects help them discover their creativity, and recreational outings expose them to the unique activities and culture of New York City.",Health,10001.0,40.7484356,-73.9940338
50,Volunteer to help NYC's youngest learners!,Strengthening Communities,10007.0,40.713265,-74.007063
500,"Summer Streets Needs Volunteers!   Be an invaluable part of Summer Streets, NYC’s best summer event!",Strengthening Communities,10007.0,40.7141085,-74.0083369
99,"An accounting or bookkeeping system is the foundation for a nonprofit’s success and effectiveness. This project requires that the organization has a minimally functional system, and the accounting professional will help improve or enhance it by offering advice and custom reports.",Strengthening Communities,10013.0,40.720942,-73.997929
99,"The art of copywriting involves the strategic articulation of words to powerfully communicate a message to target audiences about an organization or specific topics such as an organization’s mission, programs, services or projects.",Strengthening Communities,10013.0,40.720942,-73.997929
20,"Cheer on the hundreds of athletes with developmental disabilities who will be participating in the SUS Olympics on May 20th at Riverbank State Park.   Services for the UnderServed (SUS) needs assistance with running the event, including being timers, measuring throws, and awarding medals.",Helping Neighbors in Need,10001.0,40.746817,-73.993655
20,"Tackle cancer, global warming, and pollution all in one on Sunday, September 18 from 8 am-12 pm at the 21st annual Komen NYC Race for the Cure in Central Park at the Naumberg Bandshell on the 72nd St Transverse.",Strengthening Communities,10007.0,40.713797,-74.005494
10,Heart Gallery NYC needs volunteers to help out at our information table in Brooklyn. Our information table is set up at the exhibit at Atlantic Terminal.  Our goal is to raise awareness about children in need of loving families as well as to recruit prospective foster and adoptive parents!,Strengthening Communities,11217.0,40.6822886,-73.9790429
99,"A fundraising plan defines an organization’s fundraising goals, outlines prospective funding sources and includes the specific strategy and tactics to achieve the organization’s fundraising goals.",Strengthening Communities,10013.0,40.720942,-73.997929
99,"Sustaining donors’ engagement with an organization is far more cost-effective than acquiring new donors. A donor relations strategy involves an effective structure for engaging existing donors in the organization’s work by timely and appropriate donor communication, and gift stewardship.",Strengthening Communities,10013.0,40.720942,-73.997929
1,"Position entails completing mental health claim forms monthly, tracking payments and interfacing with insurance companies regarding payments, etc.",Helping Neighbors in Need,10001.0,40.7484356,-73.9940338
100,"Brighten the day of a senior!   Deliver a Passover package and visit with an older person for about an hour.   Sunday, April 10, 2011  10:00 - 12:00   REGISTER ONLINE:  www.dorotusa.org",Helping Neighbors in Need,10024.0,40.78623,-73.9756746
2,English teacher needed to teach English as a Second Language.,Helping Neighbors in Need,10013.0,40.714459,-73.999347
100,"We need voulnteers to help paint our afterschool program from 9am to 4pm starting April 13, 2011 to May 13, 2011. This project would be useful for someone who needs community services.",Strengthening Communities,10027.0,40.8104656,-73.9505422
5,Financial literacy for adults,Helping Neighbors in Need,10013.0,40.72631,-74.00749
3,Provide childcare to groups of young children while their parents are in workshops and manage volunteer chilcare helpers,Strengthening Communities,10025.0,40.7978043,-73.9675844
100,"Friendly Visiting is a fantastic program that pairs wonderful and dedicated people like you to visit the home-bound elderly in your area.  Visits take place once a week, based on your schedule and last for one hour.  With our busy schedules, what rewarding opportunity could be better than that?",Helping Neighbors in Need,11224.0,40.5798314,-73.9987552
1,"Duties include entering donations and pledges into database, creating thank you letters, updating donor information, updating reports, reconciling bank statements, and assisting the event coordinator.",Strengthening Communities,10007.0,40.713001,-74.004181
25,Help clean up tree limbs and debris that came down during Hurricane Irene.,Emergency Preparedness,10007.0,40.713265,-74.007063
15,Are you interested in working with youth to help them develop real life skills that will help better their lives and become excited about school. Then come be a B.A.C. Mentor.  We are looking for volunteers who can teach academic/career skills or life skills to high school students.,Education,11432.0,40.70848,-73.800065
50,"Take part in city wide Pride events, marches and rallies! Volunteers are needed to represent Queens Pride House at events all through the month of June. Sign up for a training today!",Strengthening Communities,11372.0,40.749193,-73.889702
30,"Help water and care for the 70,000 new street trees that have been planted across New York City! Join the MillionTreesNYC Stewardship Corps and help keep New York City GREEN by coming to a free MillionTreesNYC stewardship workshop",Environment,11355.0,40.7504407,-73.8199665
15,A walk in Riverside Park on Sun. June 5th to raise funds for the NYCHC  and the National Hemophilia Foundation. The New York City Hemophilia Walk was the first and is still the largest of the Hemophilia Walks held by NHF across the country. Together these walks represent NHF’s largest events.,Strengthening Communities,10001.0,40.748715,-73.984806
3,"SMART Recovery NYC has a solid program for those suffering from addictive behavior problems. We use a range of cognitive-behavioral techniques to manage urges, modulate emotions and problem solve.",Education,10021.0,40.7701875,-73.9596759
1,"The New York Legal Assistance (NYLAG), a non-profit law firm based in New York City, is recruiting volunteers for its Consumer Protection Law Project.",Helping Neighbors in Need,10004.0,40.70447,-74.009406
2,A bi-weekly nutrition workshop for low-income seniors who reside in Brooklyn. The goal of these workshops is to focus on different aspects of nutrition each time and give seniors useful and practical information about how they can improve their daily diets.,Helping Neighbors in Need,11224.0,40.5798314,-73.9987552
1,NYAWC is seeking a volunteer to assist our busy development department and staff our administrative office’s welcome desk.,Strengthening Communities,10004.0,40.706045,-74.013096
1,BCA is searching for an intern for its administrative office in New York City. Please see the full description for further details.,Strengthening Communities,10016.0,40.750131,-73.981247
15,Do you Love Working with Books? Help a Brooklyn elementary school sort and organize their books.,Strengthening Communities,10010.0,40.739861,-73.9851916
2,"Scheduling, updating, organizing website for New York Futsal's camps, leagues, clinics and after school programs. Someone who is creative and likes making websites functional while looking great, while receiving the title as Website Coordinator/ Manager. Also, person can work mostly from home!",Strengthening Communities,10024.0,40.78623,-73.9756746
20,"Date: Sunday,  June 5, 2011: Manhattan – Battery Park",Strengthening Communities,10006.0,40.706251,-74.012952
90,TBL is now seeking volunteers to apply for the Fall 2011-Spring 2012 academic year.,Education,10017.0,40.752685,-73.9734419
20,"PAL IS 218 Beacon 1st Annual Community Health & Education Fair.  The fair will be held Saturday, June 25, 2011 from 11 AM to 3 PM. The fair will include health and career information, community performers, local entrepreneurs, and children’s entertainment. We have multiple volunteer opportunities!",Health,10003.0,40.7313422,-73.9887282
2,"NYC Parks and Recreation seeks your participation to enrich our recreation facilities! Shape Up New York is a free fitness program for all ages and is looking for additional instructors at the Jackie Robinson Recreation Center (89 Bradhurst Ave., NY, NY 10031), accessible by A, B, C, D trains.",Health,10029.0,40.7920271,-73.9445046
99,"A one-pager communicates concise overview information about an organization, its mission, and/or the programs it runs. This brief document provides key messaging about an organization, its specific initiatives, and its strategic direction to target audiences, stakeholders, or the media",Strengthening Communities,10013.0,40.720942,-73.997929
20,Recycling in the city has declined and we need YOU to help get NYC recycling again!,Environment,11231.0,40.6802278,-74.0004106
4,The International Youth Leadership Institute supports active community leadership and global understanding through Seminars and Travel Programs in Africa and Latin America,Education,10014.0,40.733935,-74.0049302
10,"Change a community!  Give the gift of self confidence, independence, health, and a smaller carbon footprint! Volunteer for Bike New York!",Health,10115.0,40.811101,-73.964168
6,HEAF seeks mentors for our NYCService-funded Middle School Mentoring Initiative. Mentors will be placed with small groups of students at Renaissance Military Leadership Academy in Harlem in order to positively impact the students’ academic and emotional development in pursuit of college education.,Education,10027.0,40.8104656,-73.9505422
100,"Work one-on-one with a First-Generation College Student to develop a life plan and provide general career guidance.  Support, guide and advise students throughout their Fellowship.",Education,10013.0,40.717363,-74.006897
2,"Lifebeat, a non-profit dedicated to HIV/AIDS prevention through music seeks TWO (2) dedicated interns with lots of energy to assist us this winter 2011 through summer 2011.",Strengthening Communities,10036.0,40.757636,-73.985804
1,This is a good opportunity for someone who either has non-profit experience or who would like to learn the workings of a non-profit organization up close.,Strengthening Communities,10007.0,40.713001,-74.004181
1,This volunteer opportunity allows you to work in a garden zone of your choice within Hudson River Park.  You’ll be working with a Lead Gardener on a regular basis to help maintain a specific area.,Strengthening Communities,10014.0,40.733935,-74.0049302
2,"We are New York City’s largest girls-only youth and leadership development program where girls learn to lead with courage, confidence and character to make their communities and the world  a better place.",Strengthening Communities,11205.0,40.690765,-73.971376
15,Volunteer at the annual Special Camp Fair helping families of children with disabilities find summer programs.,Strengthening Communities,10003.0,40.7313422,-73.9887282
250,Help clean up tree limbs that came down during Hurricane Irene.,Emergency Preparedness,11693.0,40.5992482,-73.8180932
5,"Blue Engine recruits, selects, trains, and supports recent college graduates who dedicate one year of service to accelerate academic achievement in high-need public high schools. Since we are still in the early stages of growth, we need driven people to help us get the word out about Blue Engine.",Education,11201.0,40.6927173,-73.9916465
2,Girls Write Now is accepting applications for volunteer or for-credit interns for Fall 2011. Interns will gain valuable experience with a fast-growing nationally recognized non-profit organization and also enhance his/her career opportunities in the literary and arts education professions.,Education,10018.0,40.754116,-73.9903452
10,Recruiting outstanding volunteers to collaborate on the boldest nonprofit initiative we know. We are looking for passionate volunteers with exceptional skills to take initiative on different projects. This is an outstanding leadership opportunity in an innovative start-up nonprofit organization,Education,10001.0,40.749794,-73.991486
30,Are you 18 years of age or older?  We have opportunities during the day from 9-3 and in the evening  from  4-10. (There can be some flexibility during the evening shift for those who leave work at 5).   Contact us to schedule your interview today!,Helping Neighbors in Need,10035.0,40.7946297,-73.9416057
50,"New York’s College Goal Sunday is a service project of the New York State Financial Aid Administrators Association and the New York State Higher Education Services Corp., the state financial aid agency.",Education,10461.0,40.8458471,-73.8411421
200,"The American Diabetes Association's largest Latino event of the year – Feria de Salud, scheduled to take place on Saturday, August 27, 2011.",Health,10001.0,40.747629,-73.99306
150,"Through our renowned Partnership Program, PENCIL builds and supports customized relationships between business leaders and principals to inspire innovation and transform public schools.",Education,10010.0,40.739861,-73.9851916
1000,Help Cancer Patients with their treatement needs by donating blood or platelets.,Emergency Preparedness,10065.0,40.764817,-73.958168
17,Work with a team to do fundraising,Strengthening Communities,11426.0,40.7340142,-73.7214195
1,"Warm up the day of a senior!   Deliver a package and visit with an older person for about an hour.    Sunday, Jan. 30, 2010   10:00 am - Noon   DOROT 171 West 85 Street (off Amsterdam Ave.)    Photo ID Required",Helping Neighbors in Need,10024.0,40.78623,-73.9756746
2,"HRC seeks enthusiastic and committed volunteers to work with us in our training, overdose, and policy programs. Volunteer duties may include:",Strengthening Communities,10001.0,40.7484356,-73.9940338
10,Assist with office work and interact with staff and clients at Brooklyn Home Delivered Meals office.,Helping Neighbors in Need,10001.0,40.7484356,-73.9940338
2,Mainchance Drop-In Center for Manhattan's homeless and hungry is seeking a volunteer yoga instructor to continue work with interested clients.,Health,10016.0,40.7454894,-73.9797093
1,The Mayor's Office of Immigrant Affairs is seeking an experienced graphic designer to donate their time and skill to make the NYC Restaurant Owner Manual come to life.,Strengthening Communities,10007.0,40.7141085,-74.0083369
200,"Governor’s Island needs volunteers for programs for  its on-Island partners,such as serving as an Island Ambassador, staffing large public events, maintaining flower beds in the Historic District, or working with children at the Island's Harbor Discovery Area. Sign up at: Bit.ly/GIAVolunteer !",Strengthening Communities,10003.0,40.734163,-73.988627
2,Build a website for an Afghan business,Strengthening Communities,10010.0,40.739861,-73.9851916
99,"Event planning helps an organization coordinate all the moving pieces of a major event, including venue & logistics, invitation, evening program & entertainment, caterers, sponsors, ticketing, and gift bags/auctions/raffles.",Strengthening Communities,10013.0,40.720942,-73.997929
15,"Become a volunteer with Bike New York, a non-profit Bicycling organization, and give someone the life changing skill of knowing how to ride a bike!",Education,10115.0,40.811101,-73.964168
2,"NYC Parks and Recreation seeks your participation to enrich our recreation facilities! Shape Up New York is a free fitness program for all ages and is looking for additional instructors at the Asser Levy Recreation Center (392 Asser Levy Place NY, NY, 10010), accessible by the M23 bus and 6 train.",Health,10029.0,40.7920271,-73.9445046
100,Join us as we start our fall volunteer season with events in three areas of Van Cortlandt Park,Strengthening Communities,10463.0,40.895865,-73.892294
40,"Monday, April 11, 2011: Our Time seeks volunteers to help with preparations for and coordination of its 9th Annual Benefit Gala, which will be honoring David Seidler, writer of The King's Speech.",Strengthening Communities,10003.0,40.729409,-73.997817
1,"NY Artists Unlimited is a 28 year old nonprofit organization that takes free professional theatre and art to under-served audiences. A multicultural company, we tour New York City and the Northeast with works that evoke dignity of the individual and sanctity of the human spirit.",Strengthening Communities,10011.0,40.740887,-73.9995464
10,"Volunteers needed for event setup, greeting guests, and run of show for the Battery Gala on June 7th. Dinner will be provided.",Strengthening Communities,10004.0,40.702593,-74.011671
99,"A Search Engine Optimization (SEO) plan helps an organization's website to rank better organically across various search engines, including Google, Yahoo and Bing. Organic ranking is determined by a variety of factors that include both on the page and off the page elements.",Strengthening Communities,10013.0,40.720942,-73.997929
2,The Jewish Museum seeks a volunteer staff development trainer.,Strengthening Communities,10128.0,40.785298,-73.957263
1,"NYC Parks and Recreation seeks your participation to enrich our recreation facilities! Shape Up New York is a free fitness program for all ages and is looking for additional instructors at St. Mary’s Recreation Center (St. Ann’s Avenue at East 145th street, Bronx, NY 10455)",Health,10455.0,40.811972,-73.914275
3,Lead a poetry class with our seniors.,Strengthening Communities,10001.0,40.7484356,-73.9940338
100,"he Board of Elections in the City of New York is in need of poll workers to serve at poll sites across the city. The Board is also recruiting bilingual residents fluent in Spanish, Chinese or Korean to serve as  interpreters on Election Day.",Strengthening Communities,10007.0,40.7141085,-74.0083369
3,"Lenox Hill Neighborhood House, widely recognized as one of New York's premier human services providers, is a 117-year old settlement house that provides an extensive array of effective and integrated services--social, educational, legal, health, housing, mental health, nutritional and fitness.",Helping Neighbors in Need,10001.0,40.7484356,-73.9940338
10,Want a meaningful volunteer experience? Come and work one on one with Met Council clients to update their resumes.,Helping Neighbors in Need,10038.0,40.707116,-74.007329
2,Volunteers are needed to help the residents and staff of JASA Cooper Square Senior Housing Building with their flea markets.,Helping Neighbors in Need,10001.0,40.7484356,-73.9940338
1,Provide legal services and advice to the agency and ensure our compliance to all applicable NYS non-profit laws and provisions in our day to day functioning.,Strengthening Communities,11213.0,40.674103,-73.929644
99,"A well-designed proposal budget accompanies an organization’s grant proposal or major ask and may be required by a funder. It amplifies the proposal by providing a well thought-out, specific, and tangible plan for the use of funds.",Strengthening Communities,10013.0,40.720942,-73.997929
25,"Seeking volunteers at various environmental recreation stations and as mobile museum docents for upcoming Maritime Festival and Pirates Fest at IKEA ERIE BASIN. Volunteers will be outfitted in Pirate Costume, or can bring their own-event is on JULY 30th",Environment,11231.0,40.6802278,-74.0004106
20,"Major Objective: To provide a stable, caring and loving environment for BAW’s animals while they are on medical or behavior treatment; to increase social interaction; and to provide extra attention to nursing animals.",Strengthening Communities,10016.0,40.7454894,-73.9797093
10,"Comprised of local young professionals who seek to raise awareness, resources, and funds for The Family Center, the Leadership Council celebrates the idea of family with a passionate commitment to serve the needs of families in NYC through the sharing of energy, resources and advocacy.",Strengthening Communities,10018.0,40.754116,-73.9903452
5,"The Momentum Project needs volunteers urgently to help with our dinner program located on East 106th Street in East Harlem, Manhattan, offering a nutritious hot meal and pantry to take home, as well as social services.",Helping Neighbors in Need,10029.0,40.7920271,-73.9445046
10,"Build with Habitat-NYC. Come Pound, Haul, Hammer or Paint at the Habitat-NYC construction site in Brooklyn.",Strengthening Communities,10038.0,40.707671,-74.005764
10,"Starting July 2011. Activities vary week by week, but volunteers will generally assist students in activities including an education enrichment period, singing, computer time, arts and crafts and more. There will also be an all-day trip once a week, on Wednesdays or Fridays.",Strengthening Communities,11354.0,40.754801,-73.832822
5,Volunteers are paired one on one with tutees to help teach and explain the homework assignments that the tutees have had difficulty with.,Helping Neighbors in Need,11219.0,40.6326566,-73.9966075
99,A board member search strategy helps an organization build a strong board of directors that is committed to furthering the organization's mission.,Strengthening Communities,10013.0,40.720942,-73.997929
50,Join us as we restore the beautiful John Kieran Nature Trail and the forest.,Strengthening Communities,10463.0,40.884999,-73.892977
100,"A one day free event in June for children featuring over 25 sports activities, nutrition clinics, health screening, entertainment, and vendors. Volunteers will be integral to this event running effectively and providing a place where children can be introduce to new sports and health education.",Health,11203.0,40.645985,-74.010248
30,What are you doing to honor the 10th anniversary 9/11?  Why not help seniors become better prepared for emergency situations?  Help create and distribute emergency preparedness resources and materials at low income senior housing sites.,Emergency Preparedness,10021.0,40.7701875,-73.9596759
1,Help elementary and middle school aged girls become stronger and healthier by volunteering your time as a soccer coach in an under-resourced Brooklyn community.,Health,11213.0,40.663701,-73.936049
100,"VRC is a liaison between volunteers and the non-profit agencies that depend on volunteer support. We will help match your interests, skills, and schedule availability with a non-profit that needs your help.",Strengthening Communities,10016.0,40.746816,-73.98364
5,Our website would like to include the work of photographers and artists. A wide range of work is welcome that could enhance our site and help you gain exposure. Choose one or more of the following:,Strengthening Communities,10025.0,40.7978043,-73.9675844
4,"Tracking with Excel, followup with foster parent, prescreen for foster care, mailing",Helping Neighbors in Need,10001.0,40.746817,-73.993655
20,Take on leadership and organizational role in set up and execution of halloween carnival in park slope,Strengthening Communities,11215.0,40.673717,-73.983424
30,"Help water and care for the 70,000 new street trees that have been planted across New York City! Join the MillionTreesNYC Stewardship Corps and help keep New York City GREEN by coming to a free MillionTreesNYC stewardship workshop",Environment,11103.0,40.7625484,-73.9137114
1,"Coney Island Community Kitchen, all-volunteer Coney Island nonprofit, providing meals for low-income/under poverty line community members, seeks a part-time Soup Kitchen volunteer cook to prepare meals on Fridays. Must be certified, enjoy cooking and giving back to community.",Helping Neighbors in Need,11224.0,40.576239,-73.988218
20,An RSVP mentor can make a difference in a child’s life and yours.,Education,10010.0,40.739861,-73.9851916
500,Are you looking for ways to be more physically active? Want to help your community get moving?,Health,11101.0,40.7484996,-73.9388176
5,"Work with groups, ages 6 - 16 and seniors. Help them learn and create artworks that raise public consciousness of the environment and other important issues.",Strengthening Communities,10025.0,40.7978043,-73.9675844
50,"High School Goal Weekend!  Saturday, September 24 and Sunday, September 25 9:00am - 3:00pm ~ Brooklyn Tech High School  This event provides 8th and 7th grade students in foster care additional support with the high school planning and application process.",Education,11217.0,40.688834,-73.976905
20,"""Dear Trevor"" is an online, non-time sensitive question and answer resource for young people with questions surrounding sexual orientation and gender identity.",Helping Neighbors in Need,10038.0,40.707116,-74.007329
5,The Computer Education Center at Lenox Hill Neighborhood House provides a supportive place for adults of all ages to learn how to use computers in ways that are meaningful to their lives.,Strengthening Communities,10018.0,40.754116,-73.9903452
100,"During GO School Saturday Tutorial Program, a professional teacher models a lesson, activity or project to a classroom of students.  Volunteer tutors continue to work with small groups of (2) to (4) students on the lesson providing individualized attention which allows the students to thrive.",Education,10003.0,40.7313422,-73.9887282
2,We are looking for volunteer Leadership and Community Activism Mentors for the Launch It! Summer Workshop program.,Helping Neighbors in Need,10018.0,40.754158,-73.986905
99,"Online marketing may include social media marketing, search engine optimization, display advertising on partner sites, brand integration, email blasts, search engine marketing or message board communication.",Strengthening Communities,10013.0,40.720942,-73.997929
100,Artichoke Dance Company performs YOUR PLANET: THE HUMAN MAPPING PROJECT at the culmination of beach clean up days to celebrate the earth.,Environment,11217.0,40.6822886,-73.9790429
50,Restore the forest through invasive removal and tree planting as well as maintenance work along the trail itself,Strengthening Communities,10463.0,40.884999,-73.892977
1000,Be a hero in the LGBTQ communities!   Volunteer with the NYC Gay and Lesbian Anti-Violence project.,Strengthening Communities,10001.0,40.7484356,-73.9940338
4,Ubuntu Education Fund seeks a volunteer to assist with all communications and fundraising activities in the New York City office,Strengthening Communities,10004.0,40.706045,-74.013096
1,Filing and other office duties,Health,10001.0,40.746817,-73.993655
15,"Volunteer Day, March 26th 2011, from 9am to 12pm",Strengthening Communities,10010.0,40.736274,-73.97468
5,"Bideawee Greeters will welcome visitors to Bideawee's East 38th Street location when the veterinary practice is open and serve as an information resource, directory and ease visitor's transition into Bideawee's facilities.",Strengthening Communities,10016.0,40.7454894,-73.9797093
99,"A press (or media) kit is a collection of compelling communications materials that provide important information about an organization, its mission, recent news, and accomplishments. A press kit can be easily distributed to members of the media or to other interested parties.",Strengthening Communities,10013.0,40.720942,-73.997929
30,Learn how you can directly make a positive impact on youth in Harlem!,Education,10031.0,40.819196,-73.950221
1,"Community Health Advocates (CHA);formerly NYC Managed Care Consumer Assistance Program or NYC MCCAP provides information, advice, and navigational assistance to New Yorkers.",Health,10010.0,40.739861,-73.9851916
8,"Volunteer at Broad Channel Park in Queens.  Storytelling will take place on Friday mornings in July.  Volunteers will assist with crafts, games, snack distribution and face painting.",Strengthening Communities,11415.0,40.710954,-73.835147
4,We are looking for artists to do arts programming with middle school and high school age students at the Incatnation Children's Center.  ICC is a nursing facility for children who are HIV positive and living with physical and cognitive disabilities.  Position is from April 16 - 30.,Strengthening Communities,10036.0,40.7594193,-73.9892203
2,"We are New York City’s largest girls-only youth and leadership development program where girls learn to lead with courage, confidence and character to make their communities and the world  a better place.",Strengthening Communities,10456.0,40.829721,-73.9086231
5,Share meals with patients and caregivers that have travelled to NYC for medical treatment and are staying at the Miracle House facility.,Helping Neighbors in Need,10011.0,40.739851,-74.002439
5,PAL Brownsville Beacon Center (BBC) seeks dedicated volunteer artists and educators to lead a family engagement arts-based project connecting parents and teens.,Strengthening Communities,11212.0,40.656068,-73.907245
50,Girls Inc of NYC is looking for volunteers to help distribute Boston Market fundraiser coupons to support its 12th Annual College Shower!,Strengthening Communities,10011.0,40.740887,-73.9995464
4,Get leadership & community organizing training and apply learning to launch a project. T.G.I. Friday's meal provided.,Strengthening Communities,10018.0,40.754158,-73.986905
1,Big Apple Greeter is looking for a volunteer to coordinate the Neighborhood Information Profiles that appear on our website (www.bigapplegreeter.org).,Strengthening Communities,10007.0,40.713001,-74.004181
1,Volunteer needed to translate written materials from English into Russian.,Helping Neighbors in Need,10001.0,40.746817,-73.993655
99,"An operating budget provides an organization's leadership with focus to analyze key financial and strategic issues. Budget design and development involves all key stakeholders in the budgeting process, and helps an organization move from reactive to proactive, profitable money management.",Strengthening Communities,10013.0,40.720942,-73.997929
5,We are a family of volunteers who are passionate to spread Capoeira experience among the youth and community. We are proud to join the journey with Afro-Brazil-Arts to tell you how to love and be loved by Capoeira,Strengthening Communities,10002.0,40.718943,-73.986122
99,"An e-newsletter communicates recent developments, news and events to an organization's stakeholders. Timely and thoughtful e-newsletters provide a cost-effective way for an organization to engage supporters and donors while enhancing the organization's brand.",Strengthening Communities,10013.0,40.720942,-73.997929
20,"Volunteers are needed for Bayswater Park's Fall Festival on October 16, 2011.  Duties include crafts, games, face painting and popcorn making. This event will be held in Far Rockaway, Queens.",Strengthening Communities,11415.0,40.710954,-73.835147
1,Help an adult with a developmental disability to fulfill his goal of passing his classes. He needs assistance with his remedial math and english classes.,Helping Neighbors in Need,10001.0,40.746817,-73.993655
20,"Volunteers are needed for a Haunted Lantern Tour in Fort Totten, Queens, in the following areas:singers, clowns, magicians, arts and crafts.",Strengthening Communities,11415.0,40.7068045,-73.8315833
3,"Every Sunday at our outreach/information table, Cathedral Community Cares’ volunteers provide information and referrals to clients of the Sunday Soup Kitchen.",Helping Neighbors in Need,10025.0,40.803951,-73.963139
99,"Obtaining funding through corporate sponsorship is fundamental to the success of many events. However, securing corporate sponsorships for events can be challenging and skills involved are very different from those that work in organization’s everyday fundraising.",Strengthening Communities,10013.0,40.720942,-73.997929
20,The September Concert Foundation produces free concerts in NYC and needs stagehands to set-up and break-down. You would need to be available for a few hours on a day of the concert. It is a great opportunity to see a concert production from inside.,Strengthening Communities,10019.0,40.7633948,-73.9859762
25,"Change your life by changing someone else’s. Tutor young adult males in high school who are aging out of the foster care system. Are you reliable? Social? Do you have a positive attitude? If that was a resounding yes, then see full description...",Education,10004.0,40.7018055,-74.0132736
1,"Fly-by-Night is in need of a grant writer or fund-raising person to help with securing funds for their after-school dance program at the Muscota New School, Manhattan.  Their program, free to participants , is focused on keeping students physically active as well as engaging them intellectually.",Strengthening Communities,10034.0,40.868553,-73.92383
10,"Volunteers will help us keep things organized at this fun reuse event where people bring clean, working, portable items they no longer need to share with others. Bring your swimsuit and take a dip in the ocean when the event is over! Volunteers will also help set up and break down.",Strengthening Communities,11693.0,40.5992482,-73.8180932
1,NYAWC is seeking a volunteer to support the efficient operations of the Client Services division.,Helping Neighbors in Need,10004.0,40.706045,-74.013096
1,"Live Out Loud is a nonprofit organization that connects LGBT youth with positive, dynamic role models.  We are seeking a marketing intern who is also able to help develop and execute marketing strategies for our programs and events.",Strengthening Communities,10018.0,40.755119,-73.987638
2,"NYC Parks and Recreation seeks your participation to enrich our recreation facilities! Shape Up New York is a free fitness program for all ages and is looking for additional instructors at the East 54th st. Recreation Center (348 East 54th street, NY, NY, 10022), accessible by the E, M trains.",Health,10029.0,40.7920271,-73.9445046
1,"Big Apple Greeter is looking for a videographer to take videos during our two annual fundraisers, Greeter for a Day outings, and other special events as needed.",Strengthening Communities,10007.0,40.713001,-74.004181
600,"Mentors are asked to meet with their students 4-6 times a year, and maintain monthly contact by phone or email.  SSP organizes events throughout the school year that mentors and students may attend together, or mentors may meet with students on their own – the commitment is flexible.",Education,10017.0,40.751728,-73.980084
25,Volunteers help pack and distribute nutritious groceries to low-income families and individuals.,Helping Neighbors in Need,10029.0,40.7920271,-73.9445046
50,Remove invasive plants and help native trees and shrubs.,Strengthening Communities,10463.0,40.884999,-73.892977
20,"Please join us and the students from Mott Hall on Saturday, January 29th, for an ice skating trip to Lasker Lanes!",Strengthening Communities,10026.0,40.8030637,-73.952906
15,Do you want to help a public television station make sure it’s revenue comes through?  Become an accounting volunteer and help enter data and update their database.,Strengthening Communities,10010.0,40.739861,-73.9851916
25,Help 6th-8th graders conquer their fear of basic math with individualized tutoring and real-world examples. No prior experience is necessary but motivated volunteers (all ages) who want to help kids succeed are key!,Education,10025.0,40.7978043,-73.9675844
10,"When you make the commitment to become a mentor, you are making the decision to have a real impact on a young person's life.  Staff will guide you through recreation, enrichment, and academic activities through which you can share your skills, interests, and experiences with your mentee.",Education,11106.0,40.760205,-73.937473
99,"Print materials such as brochures, one-pagers, event invitations, flyers, and posters serve as valuable marketing tools. To put an organization's best messages forward, a designer combines copy content, photographs, brand, and logo together in a visually interesting and professional manner.",Strengthening Communities,10013.0,40.720942,-73.997929
15,we are inviting all New Yorkers to protect their identity by bringing personal documents to be shredded for free at more locations than ever: 16 locations throughout the City. Shred Fest hours are from 10 am to 4 pm.  Shred Fest volunteers will be needed on-site from 9:30 am to 4:30 pm.,Helping Neighbors in Need,10004.0,40.70627,-74.012909
3,"We need help in our preschool building where we serve children with autism.  Building is in Douglaston, Queens and we need volunteers for Clerical/Administrative Duties & Cleaning.  QSAC is a non profit agency serving children with autism throughout NYC.  Please help us make a difference today!",Education,10001.0,40.7484356,-73.9940338
20,"Help is needed to stuff, seal and stamp approximately 15,000 envelopes, in preparation for the upcoming Purim holiday.",Strengthening Communities,11230.0,40.624126,-73.965061
25,Drivers needed to take individuals to medical appointments.  Very rewarding.  Some people are not able to go to their medical appointments without this assistance.,Helping Neighbors in Need,10010.0,40.739861,-73.9851916
50,"Hope & Heroes is looking for volunteers for our walk on Saturday, May 21 in Riverside Park! To learn more about the walk please go to www.hopeandheroeswalk.org",Strengthening Communities,10025.0,40.7978043,-73.9675844
15,"Groundwork, Inc. is hosting a Decision Day pep rally & barbeque in honor of our college bound students! The day also serves as an opportunity to advocate college enrollment throughout the community!",Strengthening Communities,11207.0,40.6723033,-73.8948166
2700,Where to Turn is looking for student volunteers to shovel snow for senior citizens on Staten Islans,Helping Neighbors in Need,10308.0,40.551906,-74.1506664
2,"We are New York City’s largest girls-only youth and leadership development program where girls learn to lead with courage, confidence and character to make their communities and the world  a better place.",Education,10027.0,40.8104656,-73.9505422
20,Recycling in the city has declined and we need YOU to help get NYC recycling again! Volunteers will work with OROE's borough-wide coordinators to teach New Yorkers to recycle more and waste less.,Environment,10007.0,40.7141085,-74.0083369
2,work closely with NYS licensed ESL teacher to provide instruction to recently arrived immigrants. Classes are in the mornings and evenings. Requires at least 4 hours per week commitment. Teaching experience not required.,Education,10455.0,40.8154623,-73.9088516
4,"Metropolitan Council on Jewish Poverty is one of New York's largest human services agencies, providing more than 100,000 New Yorkers with critical services in their fight against poverty and its effects every year.",Health,10016.0,40.744241,-73.981285
10,"Volunteers help by conducting adminstrative tasks, such as answering phones, conducting data entry and processing mailings.",Strengthening Communities,10453.0,40.853537,-73.908741
1,The New York City Coalition Against Hunger is seeking a Chinese translator to help with translation work for our “Guide(s) to Free Food & Assistance” (aka “Street Sheets” project).,Helping Neighbors in Need,10004.0,40.705689,-74.011455
10,Help us tutor Arab Immigrants applying for the US citizenship.  Small group or one-on-one tutoring Training and materials all provided  Requirements: 1) Two Hour weekly commitment 2) Cultural Sensitivity to Arab Immigrants,Helping Neighbors in Need,11209.0,40.63238,-74.021444
5,"Fundraising - foundations, direct mail, personal solicitation, business, government a0nd planned giving",Strengthening Communities,10025.0,40.7978043,-73.9675844
75,"Make tracks for turtles in the WCS Run for the Wild at the New York Aquarium. This 5K-run and Family Fun Run takes place on the boardwalk at Coney Island on Sunday, October 9, and is dedicated to saving turtles",Environment,10460.0,40.850669,-73.88242
100,The Friendly Visiting Program needs volunteers to visit homebound seniors in the Bay Ridge/Bensonhurst area of Brooklyn.,Helping Neighbors in Need,11224.0,40.5798314,-73.9987552
100,"Currently looking for volunteer mentors and instructors who will work on a team to provide SAT test prep, writing and critical thinking instruction, mentoring, and college prep services.",Education,10036.0,40.7594193,-73.9892203
1,The HAI Arts Workshops department is looking for one intern to work 30 hours each week for the 2010-2011 academic year.,Strengthening Communities,10012.0,40.723624,-73.99829
2,A volunteer who can screen movies about nutrition and fitness for low-income seniors in Brooklyn.,Health,10038.0,40.707116,-74.007329
1,"Goal of Position: To help provide office assistance related to ongoing programs in the Special Projects Department Activities: Data entry, filing, research, report creation and analysis, official document editing",Emergency Preparedness,10018.0,40.753612,-73.992417
30,Please join us at the Ft Tryon Park!  First time gardener's and those whom have never done any gardening work are welcome! Groups are welcome as well!  Please be prepared to be flexible and dress accordingly as we will be doing various gardening tasks.,Strengthening Communities,10040.0,40.8505476,-73.933841
20,Volunteers needed to deliver meals to home bound individuals.  Meal delivery takes about an hour or two and your route can be close to your home or place of employment.,Helping Neighbors in Need,10010.0,40.739861,-73.9851916
6,"Chhaya CDC seeks volunteers to promote its exciting new program called Retrofit, Block by Block.  By linking eligible homeowners and tenants to free or low-cost home energy assessments and improvements, Chhaya will help New Yorkers save money on utility bills while greening our communities.",Environment,11372.0,40.747993,-73.888827
20,"The kids and the Street Project volunteers will be enjoying a day of laser tag at the NYC Paintball and Laser Tag center over in Long Island City, Queens.",Strengthening Communities,10033.0,40.846391,-73.940099
5,"Research, writing and editing volunteers needed",Strengthening Communities,10025.0,40.7978043,-73.9675844
70,This is an opportunity for adults and high school students to obtain information regarding volunteer opportunities in a hospital/healthcare environment,Health,10016.0,40.7454894,-73.9797093
1,Volunteer as little as one hour per week to work with our seniors on arts and crafts project.,Helping Neighbors in Need,11234.0,40.613906,-73.986151
20,"Enjoy a little country right here in Manhattan with live performances, carnival rides, a reptile show, and more at Summer on the Hudson’s 9th Annual West Side County Fair, a park-wide event on Saturday, September 10, from 1-6 pm.",Strengthening Communities,10023.0,40.7769111,-73.9812146
5,Help with MLK celebration event,Strengthening Communities,10001.0,40.7484356,-73.9940338
5,"The accounting intern/ volunteer will be exposed to a number of topics in the accounting discipline such as basic accounting and bookkeeping, cost-benefit analysis, reporting, socially-responsible investing.",Strengthening Communities,10025.0,40.7978043,-73.9675844
500,Deliver a holiday package to a senior on the anniversary of 9/11.,Helping Neighbors in Need,10024.0,40.78623,-73.9756746
4,Assist teachers in an Early Head Start program.,Education,10001.0,40.746817,-73.993655
2,A residential substance abuse treatment program needs a teacher for men and women ON-SITE at 2071 Fulton St. Brooklyn. Experience working with students at multiple levels is PREFERRED. Minimum three days a week. ..10-20 students.,Helping Neighbors in Need,11233.0,40.678253,-73.910178
120,The 9/11 Memorial is seeking dedicated volunteers to support the Visitor Services staff and to play a vital role in providing a meaningful experience to visitors from around the world coming to one of the world’s foremost historical sites.,Strengthening Communities,10006.0,40.707303,-74.007574
50,Common Cents is recruiting volunteers to help with our first Annual Run for Change 5K Run/ Walk.,Strengthening Communities,10024.0,40.787556,-73.971407
2,"Our After School programs/clinics are designed to foster self-esteem & leadership skills. Skills Required: Experience playing/coaching soccer + an interest in working w/ children is a must! Futsal experience is a plus, but not necessary as we will educate you about the game and how to coach Futsal.",Health,10024.0,40.78623,-73.9756746
10,"As we collect the names of thousands of safe street supporters all summer long, we need help entering them in our database.  Our office has a fun, welcoming staff, and a fridge stocked with cold drinks! Come help us make NYC the bike friendly city of your dreams!",Education,10002.0,40.7170829,-73.9893099
25,Attend a Breakfast Orientation to learn more about  rewarding opportunities to mentor youth ages 6 to 18.  You must be age 55+ and become a member of the Retired & Senior Volunteer Program (RSVP).,Strengthening Communities,10010.0,40.739861,-73.9851916
85,The International High School @ Prospect Heights is currently seeking to provide un-paid assistance to local businesses and organizations from March - June 2011.,Education,11225.0,40.670349,-73.961695
20,Help build a sculpture from plastic bottles to raise recycling awareness and promote the high quality of  NYC Water.,Strengthening Communities,11222.0,40.7270551,-73.9488869
25,Beautify a transitional housing residence for 75 homeless men and women. We are painting the interior walls of this residence. No experience needed!,Strengthening Communities,10468.0,40.860224,-73.903924
10,"Help a child in need! We need mentors to help fraught Bushwick and Bedford - Stuyvesant students ages 5 -13 attain educational achievement. We also offer $125.00 - $250.00 to any volunteer who volunteers for a full month, Monday through Friday for at least 3 hours a day.",Education,11221.0,40.695893,-73.933281
20,Skilled volunteers to help Rebuilding Together with home repairs.,Helping Neighbors in Need,10163.0,43.152284,-75.2151128
40,"Come join Heel Your Sole to revitalize the Leake and Watts Biondi School campus! We will work together to plant flowers, veggies, and spruce up the living space that houses over 60 kids at the Residential Treatment Center year round.",Strengthening Communities,10001.0,40.7484356,-73.9940338
20,"Want to learn useful skills about trails planning and maintenance, while making a significant impact to the quality of Van Cortlandt Park? No prior trails experience is necessary; all training will be offered in an on-the-job format.",Strengthening Communities,10463.0,40.884999,-73.892977
1,Care to Share is a volunteer project to 'donate' fresh fruits and vegetables. CSA shareholders will donate a portion of their share between 10/8/11 - 10/18/11 to the CSA's local food pantry. Volunteer managers will help to manage the program.,Helping Neighbors in Need,10022.0,40.7583228,-73.9679848
20,Help students acquire basic English/Language Arts Skills.,Education,10029.0,40.7920271,-73.9445046
5,"We have 14 students in our after school program, ages 7 to 14. Volunteers will help the kids finish all their homework before they go home, assign extra classwork when they are finished and lead students in extracurricular activities.",Education,11354.0,40.754801,-73.832822
3,Come help out the kitchen staff at our Scheuer House Senior Center!,Helping Neighbors in Need,11224.0,40.573144,-74.001587
10,"We will be doing a renovation/beautification project on the Oval Track Area directly behind the Sara Delano Roosevelt HQ Park House.  Where: 102 Hester Street, NYC, NY 10002 When: Saturday, September 10th from 11am to 1pm",Strengthening Communities,10038.0,40.71187,-74.00641
50,"More than 250 Making Strides walks are held nationwide each year to celebrate people who have battled breast cancer, educate people about ways to reduce their risk, and empower communities to join the fight.  The Manhattan Walk in Central Park is on October 16th, 2011.",Strengthening Communities,10001.0,40.7484356,-73.9940338
50,"Volunteer in an under-served pre-school for one hour, once a week for 10 weeks with our Readers Program!  You will be trained to use our research based curriculum and make a real impact on a child's life!",Education,10002.0,40.7170829,-73.9893099
20,"Provide legal advice, information and resources to individuals facing consumer debt cases in Kings County Civil Court.  Use your legal skills to give self-represented litigants the tools they need to effectively represent themselves in civil court.",Helping Neighbors in Need,11201.0,40.6927173,-73.9916465
1,"Lenox Hill Neighborhood House, widely recognized as one of New York's premier human services providers, is a 117-year-old settlement house that provides an extensive array of effective and integrated services.",Strengthening Communities,10021.0,40.7701875,-73.9596759
500,Join over a thousand professionals in NYC who mentor iMentor teens from underserved communities. Most of them had never served as mentors before joining but iMentor’s flexible and supportive mentoring model gave them the opportunity and confidence to try.,Education,10004.0,40.70618,-74.01125
20,"This evening event is held at the Far Rockaway Boardwalk.  Volunteers are needed to supervise beach activities, paint faces and distribute refreshments.",Strengthening Communities,11415.0,40.710954,-73.835147
100,Reading Partners provides an opportunity and a space for volunteers from the community to give a fraction of their time each week to tutor an elementary school student one-on-one in reading using a structured and easy-to-follow curriculum.,Education,11233.0,40.6789418,-73.9203592
2,"Seeking volunteers to assist Performing Arts Director in teaching singing, acting and dancing skills to our youth.",Strengthening Communities,11102.0,40.768955,-73.928269
5,"Volunteer in one of our office to assist with duties such as Filing, Answering Phones, Word Processing, and Excel.  We will try to accomindate any special interest.",Strengthening Communities,10025.0,40.7978043,-73.9675844
20,"Jumpstart at St. John's University is looking for volunteers to come read about  friendship, make friendship bracelets and collages with preschool children!",Education,11367.0,40.727194,-73.822075
99,"Professional photographers can capture images of supporters at fundraisers, volunteers on a workday, or people whom the organization serves. These photographs can be used in promotional materials, for presentations, or on organization websites.",Strengthening Communities,10013.0,40.720942,-73.997929
5,"CHOOSE FROM 1 OR BOTH: Computers/Technical support - Windows desktop support and system administration, networking, software updating and configuration, & office equipment troubleshooting  Website Design & development - website editing, HTML and database programming, site management & promotion",Strengthening Communities,10025.0,40.7978043,-73.9675844
99,"A well-designed technology plan helps an organization increase its efficiency in daily operations. Yet, many nonprofits and social enterprises face significant challenges in determining what technology services, applications, and infrastructure to put in place",Strengthening Communities,10013.0,40.720942,-73.997929
99,A human resources strategy assesses an organization's human resources in order to provide recommendations to streamline operations and increase staff capacity.,Strengthening Communities,10013.0,40.720942,-73.997929
5,"Volunteers needed to work as a team, planning events for nonprofit organization.",Strengthening Communities,11429.0,40.713236,-73.735594
15,Help JASA clients learn how to make healthier choices!,Health,10001.0,40.7484356,-73.9940338
30,"W!se is seeking volunteers to lead seminars for the w!se Institute at the High School for Economics and Finance in downtown Manhattan.  Seminars are held every Wednesday from 1:24 to 2:24 for eight weeks.  The first module of seminars would start Wednesday, September 21.",Education,10006.0,40.7083766,-74.0134033
3,Maintain the greenhouse   Work with residents one-one or in small groups and plants.,Environment,10040.0,40.854783,-73.927909
10,"Change a community!  Give the gift of self confidence, independence, health, and a smaller carbon footprint! Volunteer for Bike New York!",Education,10115.0,40.811101,-73.964168
20,"This volunteer event will be held in Bayswater Park, Queens, on June 25th.  20 volunteers are needed to assist with crafts, games, face painting and popcorn making.",Strengthening Communities,11415.0,40.710954,-73.835147
100,Come join the Friends of Van Cortlandt Park for a day full of fun activities sure to get you outside and and moving.,Strengthening Communities,10463.0,40.895865,-73.892294
10,"Change a community!  Give the gift of self confidence, independence, health, and a smaller carbon footprint! Volunteer for Bike New York!",Health,10115.0,40.811101,-73.964168
100,Volunteer with New York Cares to clean-up after Hurricane Irene,Emergency Preparedness,10001.0,40.7484356,-73.9940338
30,The primary role of the volunteer dispatcher is to process emergency calls for help efficiently and smoothly. A dispatcher required to take information from a caller regarding a medical emergency;  The Dispatcher is responsible for receiving and dispatching emergency calls to field units.,Emergency Preparedness,11214.0,40.610245,-74.003155
500,"The Oxfam Action Corps is a group of dedicated volunteers that raise awareness by holding events and reaching out to people in our neighborhoods, town events, rock concerts – and, most importantly, in the halls of Congress.  Sign up by February 14:  http://www.oxfamactioncorps.org",Strengthening Communities,2114.0,42.8547788,-78.8087449
10,Academic tutors needed for one-on-one tutoring sessions on Tuesday and Thursday afternoons.,Education,10031.0,40.819196,-73.950221
15,"Help make health care reform work!  We assist NY consumers with questions or problems with their health insurance get the answers and help they need.  We are seeking health care advocates to work on the helpline during business hours.  Experience not necessary,  but passion is a must!",Health,10010.0,40.739861,-73.9851916
2,With four levels of Women's ESL classes running at the AAANY we are looking for a dedicated ESL Volunteer to help us strengthen our upper level Advanced Course.,Helping Neighbors in Need,11209.0,40.63238,-74.021444
5,"The Client Care Services Volunteer would be assigned to the New York City Family Justice Center, Queens (QFJC).  Flexible schedule (no less than 4 hours per week)",Helping Neighbors in Need,11415.0,40.713732,-73.826122
5,"The Leukemia & Lymphoma Society is seeking energetic, personable, and detail-oriented volunteers to assist the Operations Department.",Strengthening Communities,10016.0,40.762131,-73.97036
30,"Interested in experiencing the smells, sounds, and sights of the Astoria Broadway Street Fair while still serving your community, your city, and the environment? Then sign up to volunteer with us on Sunday, September 25!",Environment,10007.0,40.713797,-74.005494
500,Are you and your family prepared for an emergency? Join the Red Cross' Centennial Circle for a free Ready NY presentation and receive a FREE Go Bag! Presentations last for 45 minutes and will be held in English and Spanish.,Emergency Preparedness,10035.0,40.7946297,-73.9416057
5,The Latino College Expo is a college fair which takes place in the spring. The organizers of the Latino College Expo are looking for volunteers to help with the pre-Expo activities which include recruiting colleges and high schools.,Education,10461.0,40.8458471,-73.8411421
2,We are currently restructuring our non-profit organization and looking for someone who has experience in writning business plans and knowledge of the non-profit sector. Having an interest in sports and development is a huge plus!,Strengthening Communities,10024.0,40.78623,-73.9756746
10,Help decrease social isolation within the senior citizen population by visiting with a senior friend once a week for about an hour.,Helping Neighbors in Need,11427.0,40.72821,-73.7487166
100,Enjoy a taste of Van Cortandt Garden,Strengthening Communities,10463.0,40.895865,-73.892294
99,A press list is a list of media outlets and contacts that an organization wants to target on an ongoing basis or a list designed for a specific news announcement. This is a list of key reporters and publications that are relevant to an organization and the types of news it wishes to publicize.,Strengthening Communities,10013.0,40.720942,-73.997929
50,"Public carnival in Park Slope for families with games, crafts, and activities.",Strengthening Communities,11215.0,40.6672949,-73.9838984
4,We are seeking a new Coalition Leader to co-lead the Coalition as we enter into the next phase of our project and continue to expand. A job description can be found below.  Please contact us  envisionwilliamsburg@wiggiomail.com if you're interested and meet the criteria identified below.,Strengthening Communities,10301.0,40.641324,-74.075936
8,Do you want to make a difference against human trafficking? Do you want to see some of the ins and outs of putting together a very large fundraising event? Read on.,Strengthening Communities,10004.0,40.706045,-74.013096
3,"Looking to attain a professional grant writer to assist with fundraising for athletic, educational, professional and life skill development organization.",Strengthening Communities,10010.0,40.740596,-73.983938
250,Help clean up tree limbs that came down during Hurricane Irene.,Emergency Preparedness,11693.0,40.5992482,-73.8180932
5,"Arts management, creative writing and fine art.",Strengthening Communities,10025.0,40.7978043,-73.9675844
35,NYJTL is the designated promoter and beneficiary of this professsional tennis tournament held in Crotona Park in the Bronx.,Strengthening Communities,10460.0,40.839934,-73.8788519
99,"Databases are necessary to manage and analyze large amounts of data and maintain relationships amongst different kinds of data (eg. a parent and his/her children, a building and its tenants).",Strengthening Communities,10013.0,40.720942,-73.997929
12,"Tutors are the backbone of our academic enrichment program, we are currently looking for tutors for many subjects (math, science, English, history, language, SAT Prep, religion).",Education,11238.0,40.6810526,-73.9635903
1,Tutor Staff in using basic functions of MS Word,Helping Neighbors in Need,10004.0,40.706449,-74.012761
40,Join us for our June events!,Helping Neighbors in Need,10007.0,40.7141085,-74.0083369
10,Paws of Hope Foundation seeks New York State licensed drivers with truck or van or access to truck or van for petfood bank.,Helping Neighbors in Need,10156.0,42.922261,-78.3543125
34,"Volunteer at the Fall Harvest Festival in Highland Park, Queens.",Strengthening Communities,11415.0,40.710954,-73.835147
5,Become a Bike New York volunteer and teach adults and kids how to ride bicycles!,Education,10115.0,40.811101,-73.964168
2,"We are New York City’s largest girls-only youth and leadership development program where girls learn to lead with courage, confidence and character to make their communities and the world  a better place.",Education,10035.0,40.7946297,-73.9416057
25,Bronx One on One Mentoring (BOOM) seeks to make a difference in the life of a child by providing amazing mentors who can serve as positive role models and guides in their lives.,Education,10468.0,40.8653155,-73.9003369
30,The NYAWC Volunteer Council proudly presents:  Spring Volunteer Information Forum.  - Hear first-hand from current volunteers about volunteer activities - Mingle and chat with like-minded people - Refreshments provided,Strengthening Communities,10002.0,40.715738,-73.996367
5,"Assist in filing, mailings, and various clerical duties",Strengthening Communities,11217.0,40.687759,-73.982898
30,"NYC Parks is looking for teenagers or teen programs who are interested in cleaning up a local parkland by removing debris, collecting recyclables and taking care of greenery.",Environment,11415.0,40.710954,-73.835147
99,"A business plan is a document that helps you communicate your goals and the plan for how you're going to accomplish them to external stakeholders, such as potential investors, funders, advisers and Board members.",Strengthening Communities,10013.0,40.720942,-73.997929
15,"From the Cloisters to Wall Street, WoM youth teams will receive clues, then dash to each business, historical landmark, cultural institution or financial institution where they will perform tasks.",Education,10036.0,40.7594193,-73.9892203
15,"In addition to our fitness classes, which provide many health benefits, we are expanding our nutrition education programs. We are looking for volunteers to provide nutritional education/counseling to our constituents so that they can reach the levels of health and well-being that they strive for.",Health,10029.0,40.7920271,-73.9445046
1,Big Apple Greeter is currently seeking a Special Projects Manager to work with the Executive Director and the Founder.  This is an executive-level experience for the right individual interested in working in the non-profit world.,Strengthening Communities,10007.0,40.713001,-74.004181
99,A press release is a written communication directed at members of the media containing information about something newsworthy an organization is doing. A press release announces this information in an exciting and compelling way to encourage media outlets to pick up the story.,Strengthening Communities,10013.0,40.720942,-73.997929
1,"Turtle Bay Music School seeks a volunteer to tutor staff members in basic conversational Spanish for 1-2 hours per week.  Must be a fluent Spanish speaker, preferably with some teaching experience.  Interest and enthusiasm for music and community are a plus.",Helping Neighbors in Need,10022.0,40.7583228,-73.9679848
20,"On Saturday, June 11, 2011, the Mayor’s Office of Immigrant Affairs together with the City University of New York's Citizenship Now! and the Legal Aid Society is hosting a service event to help eligible Haitian nationals apply for Temporary Protected Status (TPS) or their extension for TPS.",Helping Neighbors in Need,11203.0,40.649091,-73.9340076
15,"MASA-Mexed Inc. is seeking dedicated volunteers to provide tutoring services to elementary- and middle-school students at its South Bronx community center, particularly on Tuesday evenings.",Education,10454.0,40.8076603,-73.9182931
100,Volunteers needed to help remove invasive plants and plant native trees and shrubs at various locations in Van Cortlandt Park.,Environment,10463.0,40.895865,-73.892294
50,"Come out and help us plant our garden, learn about what we are growing and turn and sift our compost bins.",Strengthening Communities,10463.0,40.884999,-73.892977
99,"Merchandise design helps an organization create professional designs for t-shirts, pins, hats or giveaways that include an organization's logo or a logo created for a special event.",Strengthening Communities,10013.0,40.720942,-73.997929
500,Looking for a way to give back and change a life?   Become a Mentor today!    Send one weekly email on an interesting topic that iMentor provides  See your mentee once a month for two hours at an iMentor organized group event.   Click this posting to learn more!,Education,10004.0,40.70618,-74.01125
20,"We are looking for volunteers to help us execute a Cinco de Mayo celebration, supporting Global Workers programs and services",Strengthening Communities,11238.0,40.673023,-73.962829
2,"Volunteer your time to work alongside an all-girls, high school rowing team, helping them succeed in academics during after-school time.",Education,11101.0,40.74673,-73.951921
2,The Fundraising Coordinator will design and coordinate fundraising activities.,Strengthening Communities,11203.0,40.652712,-74.010851
50,Memorial Day Celebration Kicks-Off Clothing Drive for Veterans Seeking Employment,Strengthening Communities,10013.0,40.716696,-74.004163
15,East Harlem Scholars Academy is looking for homework helpers and tutors for our brilliant kindergarten and first grade students!,Education,10029.0,40.790263,-73.942688
10,"PortSide NewYork is sponsoring a multimedia exhibit on the Marine response to 9-11, shown aboard the LILAC at Pier 25 in Hudson River Park during Sep. and Oct. Volunteers are needed to extend the hours the exhibit is open to the public.",Strengthening Communities,10013.0,40.7191894,-74.0023997
1,Pajama Program is currently seeking an individual with experience in:  - Fundraising events  - Identifying and cultivating long-term supporters and major gift donors who are aligned with Pajama Program's mission,Helping Neighbors in Need,10016.0,40.7454894,-73.9797093
20,On June 25th the NYC Parks will be hosting Adventures NYC and the GreenTeam will be there keeping it green. Please sign up and help out with this fun and environmentally friendly opportunity.,Environment,10065.0,40.7660142,-73.9646852
40,"There are 16,000 children actively in foster care and only 12,000 foster parents. We are helping to try to increase homes for foster children. The Month of May is foster care month.  so we will be discussing how foster care youth need support services and other issues that need to be addressed.",Strengthening Communities,10027.0,40.802461,-73.949374
1,"NYC Parks and Recreation seeks your participation to enrich our recreation facilities! Shape Up New York is a free fitness program for all ages and is looking for additional instructors at St. Mary’s Recreation Center (St. Ann’s Avenue at East 145th street, Bronx, NY 10455)",Health,10455.0,40.811972,-73.914275
6,Several volunteers are needed for an upcoming cocktail party benefiting the Children's Museum of the Arts.,Strengthening Communities,10013.0,40.72064,-73.998568
2,Services for the UnderServed (SUS) is currently seeking volunteers interested in becoming an on-demand Driver.  Volunteers are needed occasionally to drive staff and other individuals to program sites located throughout New York City.,Helping Neighbors in Need,10001.0,40.746817,-73.993655
10,"Tutors are needed for our youth program Union East After 3. Subjects include math, science, english, spanish, and history.",Education,10029.0,40.786574,-73.948303
1,Help our seniors express themselves through painting!,Strengthening Communities,10001.0,40.7484356,-73.9940338
10,Help Met Council clients practice their networking skills.,Helping Neighbors in Need,10038.0,40.707116,-74.007329
1,We are in need of a Help Desk Intern to help our engineers solve the issues of our end users in a more timely fashion.,Strengthening Communities,10017.0,40.753074,-73.972753
2,The director of public relations is the person who represents and is responsible for educating and promoting awareness of our agency and it services to the community.,Strengthening Communities,11213.0,40.674103,-73.929644
1,Serve as the first point of contact for the Connect-to-Care program.,Strengthening Communities,10013.0,40.726623,-74.007753
20,"Assist farmers with weeding, mulching, planting, and harvesting in our two acre vegetable production.",Health,11004.0,40.748163,-73.719431
10,Publicolor engages underserved students in their education and to catalyze change by empowering them and other residents of inner city communities to transform their environments through the power of color and collaboration.,Strengthening Communities,10001.0,40.7484356,-73.9940338
10,"Sales Associate, Sorting Clothing, Inventory; volunteers needed in all of their stores throughout Manhattan and in Brooklyn.",Strengthening Communities,10010.0,40.739861,-73.9851916
12,"The representative will phone outside organizations to promote awareness of upcoming events and seek out participation from local businesses, community based organizations and individuals.",Helping Neighbors in Need,11416.0,40.689418,-73.838575
10,Has math always come easily to you?  Do you know what prepositions and adjectives are?  Are you an expert on ecosystems?  Well . . . have you ever considered sharing your knowledge by becoming a tutor for children in need?,Education,10038.0,40.707116,-74.007329
15,"(CNYCN) and its partners are now organizing 2011 Rise Up & Stay Put! Saturday, April 23 at York College in Queens, and a future date and location in Brooklyn this summer.",Helping Neighbors in Need,11451.0,40.700569,-73.796573
3,We are in need of volunteer exercise teachers to instruct our members at our H.E.S. and Mill Basin Senior Centers.,Health,11206.0,40.632808,-73.89122
100,"City of New York Department of Parks & Recreation Annual Winter Festival featuring Cross Country Skiing, Snowboarding, and Snowshoeing!",Strengthening Communities,10065.0,40.767711,-73.970516
20,"The Trevor Lifeline, 866.4.U.TREVOR (866.488.7386), is the only nationwide, around-the-clock crisis and suicide prevention lifeline for lesbian, gay, bisexual, transgender and questioning (LGBTQ) youth.",Helping Neighbors in Need,10038.0,40.707116,-74.007329
50,Projects throughout the Park will include tree plantings and invasive plant removal.,Strengthening Communities,10463.0,40.884999,-73.892977
4,"The Police Athletic League seeks volunteers to imput survey data on Wednesday, May 18 from 10:00 am to 12:00 pm in Manhattan!",Strengthening Communities,10003.0,40.7313422,-73.9887282
5,Early morning and overnight volunteers needed at a homeless shelter.,Helping Neighbors in Need,10010.0,40.739861,-73.9851916
100,"Climb to the Top is a unique stair climbing event hosted by the National MS Society, NYC-SNY Chapter that will take place n Sunday, February 27, 2011 as 1,000 participants will climb 66 flights of stairs to help create a world free of MS.",Health,10112.0,40.758754,-73.978692
20,"World Cares Center is seeking up to 20 volunteers to participate in an emergency management drill on Wednesday, February 2, 2011.",Emergency Preparedness,10018.0,40.753612,-73.992417
3,The director of development will provide developmental guidance and support to the senior management team of the agency.,Strengthening Communities,11213.0,40.674103,-73.929644
10,Help with the implementation of JASA's Home Delivered Meals survey,Helping Neighbors in Need,10001.0,40.7484356,-73.9940338
20,"Come ring in Spring with a trip to the Central Park Zoo with the kids of Harlem Dowling 125th! We will meet at the Center at 11:00 AM, for a quick lunch, before heading down to the zoo. We will return to the Center for drop-off at 3 PM. Hope you can join us! 11:00 AM",Strengthening Communities,10027.0,40.8104656,-73.9505422
5,"We are looking for dedicated and enthusiastic volunteer mentors for adults with intellectual disabilities (such as autism, Down syndrome). Our programs and services are designed to nurture independence and confidence.",Helping Neighbors in Need,10001.0,40.746817,-73.993655
1,ACTS Community Development is seeking volunteer/intern to research and write grants.,Strengthening Communities,11224.0,40.576239,-73.988218
25,Gain experience you can't get anywhere else as you help people who are experiencing some form of personal crisis--from a bad day to a broken heart to a major loss or depressive illness.,Helping Neighbors in Need,10003.0,40.7313422,-73.9887282
1,Volunteer needed to translate written materials from English into Chinese.,Helping Neighbors in Need,10001.0,40.746817,-73.993655
18,"Help out at this month's Clothing Donation Day. We will be meeting and greeting clothing donors, providing tax receipts, and sorting donations to select only the best for Dress for Success clients. These events fill up quickly, so register soon! 10:45 a.m. - 3:00 p.m.",Helping Neighbors in Need,10001.0,40.7484356,-73.9940338
9999,Due to popular demand the Friends are pleased to offer community members FREE trees to plant on private property.,Strengthening Communities,10463.0,40.884999,-73.892977
50,"Volunteers are needed for Cool Culture's Catch the Cool family event on Saturday, June 19, 2011 that will take place at the Queens Museum of Art in Flushing Meadows Corona Park. The event will be an opportunity for Cool Culture families to take part in museum tours, storytelling and art making.",Strengthening Communities,11368.0,40.7480832,-73.8606294
400,"Please join the JCC staff, members, and neighbors on the tenth anniversary of the tragedies of September 11. Organized community service activities will take place in and outside of our building in remembrance of the events of 9/11. Choose your project on the morning of the event.",Strengthening Communities,10023.0,40.7769111,-73.9812146
2,"We are New York City’s largest girls-only youth and leadership development program where girls learn to lead with courage, confidence and character to make their communities and the world  a better place.",Strengthening Communities,10453.0,40.8523117,-73.9120143
30,Become at tutor with The Fresh Air Fund and change a child's life forever!,Education,10017.0,40.74991,-73.975061
10,Volunteers help our clients by reviewing and editing résumés/coverletters and giving interview tips to a woman in need. They also meet with clients to perform mock interviews and informational interviews in order to give them a chance to practice and improve their communication skills.,Helping Neighbors in Need,10453.0,40.853537,-73.908741
5,"A team of mature adults staff our desk in front of the surgical suites.  Providing information, connecting families and physicians post surgically and guiding families to the resources they need is the focus of this volunteer experience.",Health,11215.0,40.668293,-73.979237
2,"In 2010, POTS’ Case Managers helped close to 1,100 people including 315 families with 300+ children identify barriers to stability and take steps to address them.  369 individuals were provided information and referrals to link with detox, educational and employment programs, shelter.",Helping Neighbors in Need,10458.0,40.865714,-73.886305
2011,Join our membership campaign to become the largest timebank in the United States!,Helping Neighbors in Need,10007.0,40.7141085,-74.0083369
10,Help immigrants and new Americans practice their English through some Coffee & Conversation!,Helping Neighbors in Need,11215.0,40.668597,-73.976861
1,"Fall internships run from September-December and require 12-16 in-office hours per week with occasional Saturday events. Interns report directly to development staff, assisting with key aspects of funder research, proposal drafting and packaging, outreach, and communications.",Education,10018.0,40.754116,-73.9903452
20,"Far Rockaway Beach, Queens.  Volunteers needed for crafts, games and face painting.  The event takes place on April 30th.",Strengthening Communities,11415.0,40.710954,-73.835147
5,"Recruit, supervise, and communicate with volunteers and interns in our office and all over the world.",Strengthening Communities,10025.0,40.7978043,-73.9675844
100,"The World Science Festival, returning to New York City June 1-5, 2011 with a sweeping array of cutting-edge science programs designed to make the esoteric understandable and the familiar fascinating, is once again looking to assemble the best volunteer team in the business!",Strengthening Communities,10115.0,40.811101,-73.964168
15,"Stop 'N' Swap reduces NYC's waste by finding new homes for unwanted, but usable items.  Help sort, fold and display items to make this a fun free reuse experience for all.",Environment,10455.0,40.8154619,-73.9088498
20,Volunteers help with organizing pantry and pre-packing grocery bags and produce orders.,Helping Neighbors in Need,10029.0,40.7920324,-73.9445047
20,Volunteers needed to teach seniors basic computer skills.,Strengthening Communities,10017.0,40.750245,-73.976909
1,NYAWC is seeking a volunteer to help research grant opportunities. Our programs and services for abused women and their children are funded by a combination of public and private sources.,Helping Neighbors in Need,10004.0,40.706045,-74.013096
25,Learning Leaders currently seeks tutors to help in all subject areas at High School of Art and Design.  The High School of Art and Design is the only high school for the development of artists interested in the commercial arts. Studio classes are conducted as in a professional agency.,Education,10022.0,40.759092,-73.965463
32,Volunteers are needed to help developmentally disabled adults at a bowling tournament.  No bowling skills are required.,Helping Neighbors in Need,11695.0,40.562758,-73.888257
20,Volunteers will be responsible for helping the student-athletes complete their homework assignments and study for upcoming exams.,Education,10026.0,40.806654,-73.955649
60,"ATTENTION PROFESSIONAL WOMEN WRITERS: SHARE YOUR CRAFT AND WORK ONE-TO-ONE  WITH AN ASPIRING TEEN WRITER!  EXTENDED DEADLINE - JULY 11, 2011  APPLY NOW TO BE A VOLUNTEER WRITING MENTOR FOR A HIGH SCHOOL GIRL.",Education,10018.0,40.754116,-73.9903452
4,A program for seniors to encourage fitness.,Health,10038.0,40.707116,-74.007329
25,Help clean up tree limbs and debris that came down during Hurricane Irene.,Emergency Preparedness,10007.0,40.713265,-74.007063
20,Did you know that 1 in 10 people in the United States face a future with liver disease?The American Liver Foundation is working toward a world free of liver disease and we need your help!Together we will make a difference.Join the American Liver Foundation as a Liver Life Walk Volunteer Crew Member!,Strengthening Communities,10006.0,40.706251,-74.012952
1,Volunteers needed for an outreach campaign marketing Food Access and Medicaid within the 5 boroughs of NYC.,Helping Neighbors in Need,10004.0,40.70447,-74.009406
100,"A free family friendly event, featuring local art, live entertainment and free art classes for the entire family.",Strengthening Communities,11238.0,40.6810526,-73.9635903
1,"Seeking a highly motivated and energetic Public Relations Intern, who will be responsible for executing our public relations goals. The Public Relations Intern will write and edit press releases, arrange media interviews and maintain an on-going relationship with media professionals and the public.",Strengthening Communities,11215.0,40.677354,-73.984973
10,"Girls Inc. of NYC seeks Summer Workshop Volunteers to support the Girls Inc. program facilitators.  Volunteers will support individual girls and small groups, while the girls explore various topics including Art, Theatre, Economic Literacy and Career Skill Building.",Education,11201.0,40.694682,-73.988853
1,"We are in need of a volunteer to teach an ESL class at our H.E.S. Senior Center, located in Canarsie.",Helping Neighbors in Need,11206.0,40.632808,-73.89122
1,UJA is currently looking for volunteer managers for its Care to Share Project.,Education,10004.0,40.70447,-74.009406
25,"Hundreds of New Yorkers spent Saturday night in a City shelter as a result of Hurricane Irene.  Help volunteers as they wake up, spend the morning in the shelter, and transition home.",Emergency Preparedness,10007.0,40.713265,-74.007063
99,"Successful grant proposal preparation not only requires a deep understanding of the organization that one is preparing the grant for, but also an understanding of the grantmakers’ expectations. To prepare the most effective grant proposal, an organization should have a plan of attack",Strengthening Communities,10013.0,40.720942,-73.997929
300,"Volunteer with Share Our Strength, the Coalition Against Hunger, CIty Harvest, The Food Bank for NYC and the Citizens Committee for Children on  July 16th from 10 to 3 to support summer meals.",Helping Neighbors in Need,10013.0,40.7191894,-74.0023997
1,"Position entails completing mental health claim forms monthly, tracking payments and interfacing with insurance companies regarding payments, etc.",Strengthening Communities,10001.0,40.7484356,-73.9940338
20,"Thousands of New Yorkers aren’t able to dig out the snow; many need help shoveling snow, bringing groceries into their home, or traveling to mass transit hubs.  If you’re an able-bodied New Yorker with a few minutes to spare, please find an opportunity in your neighborhood below.",Helping Neighbors in Need,10007.0,40.713265,-74.007063
99,"Photography is a powerful way for an organization to showcase its work, the communities and constituents it serves, and create a visual and emotional appeal to its supporters.",Strengthening Communities,10013.0,40.720942,-73.997929
1,"We need a volunteer to help us hand sew our costumes .  Volunteer should be able to teach childen  to sew by hand - September 17, 24, Oct. 1 and 8",Strengthening Communities,11205.0,40.6931304,-73.9643409
5,PAL Brownsville Beacon Center (BBC) seeks dedicated volunteer dance instructor to train 20 middle school and teen participants with or without formal dance experience.,Health,112112.0,40.7127281,-74.0060152
1,"The marketing and communications intern will assist with social media efforts, research, development of marketing materials and fundraising.",Strengthening Communities,11217.0,40.687759,-73.982898
15,Help preserve the history of one of the oldest and largest police establishments in the world. Become a docent and share the wonderful stories of the New York City Police Department.,Strengthening Communities,10010.0,40.7398648,-73.9851914
5,"If you love the museum enviorment and are availible on Wednesday or Friday afternoons ,Thursday or Friday mornings? Consider helping a  local museum staff its shop.",Strengthening Communities,10010.0,40.7398648,-73.9851914
10,"The Iridescent NYC Science Studio (www.iridescentlearning.org) aims to evolve the press-and-watch science center model into a hub of design, creativity, and learning by doing. We are looking for volunteers to operate cool exhibits at our first open house!",Education,10474.0,40.817286,-73.89184
3,Volunteer needed with knowledge of exercising to assist with the development of an exercise program for hospital staff during the work week/work day.,Health,10016.0,40.7454894,-73.9797093
30,"Nothing says summer like outdoor concerts, bicycles, free dinner and loads of Transportation Alternatives (T.A.) volunteering. We've got the full package with T.A. Bike Valet and we're in need of volunteer help at our Celebrate Brooklyn and Brooklyn Bridge Park Movies with a View valet stations.",Environment,10002.0,40.7170829,-73.9893099
1,"Mainchance drop-in center for homeless and hungry adults seeks a volunteer to help our clients construct effective and professional resumes and, in turn, help them obtain employment.",Helping Neighbors in Need,10016.0,40.7454894,-73.9797093
10,Free Arts NYC  is recruiting volunteers to join Team Free Arts and raise funds for our unique art and mentoring programs.,Strengthening Communities,10018.0,40.754531,-73.987086
25,"Help squash barriers to success this summer at StreetSquash's Summer Discovery Program! Turn summer learning into fun by volunteering with 11 to 14 year olds on the squash courts, in academic enrichment sessions, and in a variety of other activities.",Education,10026.0,40.8030637,-73.952906
4,"We are looking for chefs, culinary students, dietitians, and home cooks to teach formerly homeless individuals how to prepare healthy and affordable meals in Brooklyn.",Health,10001.0,40.746817,-73.993655
50,"Help the fight against breast cancer by volunteering with Komen Greater NYC-- advertise September's Race for the Cure at an outdoor farmer's market, help out one of our other summer initiatives, or volunteer on Race for the Cure Weekend 2011!",Health,10018.0,40.751949,-73.989941
1,The individual in this role will work closely with the Director of Communications and Community Outreach to bring information about NIP's psychotherapy services to the New York community.,Strengthening Communities,10107.0,40.7663202,-73.9824356
22,"Help out with arts and crafts, face painting, games and a strawberry eating contest at Highland Park, Queens.",Strengthening Communities,11415.0,40.710954,-73.835147
2,World Cares Center will be providing 15 training sessions to a group of Brooklyn youth ages 13-18 on preventing and responding to emergencies.  We are looking for individuals who can co-facilitate the delivery of these sessions which will take place for 1 hour a week from March-June 2011.,Emergency Preparedness,10018.0,40.753612,-73.992417
1,Help teach basic computer skills to seniors,Helping Neighbors in Need,10001.0,40.7484356,-73.9940338
2,We are looking to attain a highly skilled sports marketing specialist who can assist securing sponsorship opportunities for our non-profit program and events.,Strengthening Communities,10010.0,40.740596,-73.983938
1,Volunteer needed to translate written materials from English to French.,Helping Neighbors in Need,10001.0,40.746817,-73.993655
2,HAI is looking for two interns to work with the Director of Communications.,Strengthening Communities,10012.0,40.723624,-73.99829
2,NYC Parks and Recreation seeks your participation to enrich our recreation facilities! Shape Up New York is a free fitness program for all ages and is looking for additional instructors at Faber Park in Staten Island.,Health,10029.0,40.793292,-73.951826
99,Blogs enable organizations to easily publish a stream of new content. WordPress is a free open-source and SEO-friendly blogging software that organizations can use to build blogs and provide regularly updated content to their audiences,Strengthening Communities,10013.0,40.720942,-73.997929
2,Volunteer needed to teach individuals to knit and crochet.  The items are for the children and seniors who are patients at the hospital.  The volunteer would be needed for three to four hours per week.,Strengthening Communities,10016.0,40.7454894,-73.9797093
20,"Lifeguard facilitators travel the greater NYC area, conducting workshops for youth and adults alike in schools and other youth-oriented venues.",Strengthening Communities,10038.0,40.707116,-74.007329
5,This NYC cultural institution is looking for art enthusiasts who are social and would love greeting and meeting others. Being bilingual in Spanish and English is a plus.,Strengthening Communities,10010.0,40.7398648,-73.9851914
500,"Keep the NYC Century Bike Tour rolling by being part of our esteemed volunteer crew! There are many opportunities for you to choose from. Whether you want to ride, set up, help out at a local park or guide cyclists through dangerous intersections, T.A. staff (and all the riders) can use your help!",Health,10001.0,40.7484356,-73.9940338
1,"The Archivist will be responsible for organizing Lighthouse archives so it is easily accessible and develop a plan for cataloging, housing, and displaying current archival items, and handling incoming items going forward.  This is a flexible with a requirement of 6-10 hours per week.",Strengthening Communities,10022.0,40.762661,-73.969179
99,"Websites give an organization an Internet presence - providing information about the organization, as well as showcasing the achievements of the organization. A website is also useful channel of communication between the organization and its donors and beneficiaries.",Strengthening Communities,10013.0,40.720942,-73.997929
